{"type":"FeatureCollection","features":[{"type":"Feature","properties":{"layer":"parcel","authority":"county","source":"Ventura County GIS, maps.ventura.org SDs/Parcels/MapServer/0, APN10 0370012125, read 2026-09-18","apn":"037-0-012-125","acreage":9.47,"situs":"11962 SULPHUR MOUNTAIN RD","note":"Assessor fabric, not a survey: agrees with the record on the road frontage, drifts up to 29 ft (8.7 m Hausdorff) west of the record line on the west side. Never site anything near the west line or the easement from this ring."},"geometry":{"type":"Polygon","coordinates":[[[-119.1548397,34.4335521],[-119.1548449,34.4328545],[-119.1549784,34.4328552],[-119.1549928,34.4326631],[-119.1549996,34.4317873],[-119.1569123,34.4318347],[-119.1569068,34.4321781],[-119.1578161,34.4323216],[-119.1578146,34.4324057],[-119.1570325,34.4325115],[-119.157021,34.4333742],[-119.1570185,34.4335637],[-119.1548397,34.4335521]]]}},{"type":"Feature","properties":{"layer":"footprint","authority":"county","source":"Ventura County GIS DataDownloads/CommonData/0 building footprints (via the atlas data/footprints.json)","apn":"037-0-012-125","county_use":"FIELD AND SEED CROPS","county_default_height_ft":17,"county_base_m":421.12,"lidar_2018":{"kind":"shed","roof_m":2.5,"roof_p20_m":2.42,"roof_p50_m":2.59,"canopy_over_m":16.3}},"geometry":{"type":"Polygon","coordinates":[[[-119.155647,34.432773],[-119.155576,34.432766],[-119.155584,34.432707],[-119.155655,34.432714],[-119.155647,34.432773]]]}},{"type":"Feature","properties":{"layer":"footprint","authority":"county","source":"Ventura County GIS DataDownloads/CommonData/0 building footprints (via the atlas data/footprints.json)","apn":"037-0-012-125","county_use":"FIELD AND SEED CROPS","county_default_height_ft":17,"county_base_m":423.16,"lidar_2018":{"kind":"concrete pad","roof_m":null,"note":"no returns above 0.5 m in 2018 — the survey's concrete pad, not a building"}},"geometry":{"type":"Polygon","coordinates":[[[-119.155732,34.433202],[-119.155671,34.433202],[-119.155671,34.433142],[-119.155733,34.433142],[-119.155732,34.433202]]]}},{"type":"Feature","properties":{"layer":"footprint","authority":"county","source":"Ventura County GIS DataDownloads/CommonData/0 building footprints (via the atlas data/footprints.json)","apn":"037-0-012-125","county_use":"FIELD AND SEED CROPS","county_default_height_ft":17,"county_base_m":424.81,"lidar_2018":{"kind":"house","roof_m":3.6,"roof_p20_m":3.25,"roof_p50_m":4.03,"canopy_over_m":12.1,"note":"single storey; assessor SQ_FT_I 1277"}},"geometry":{"type":"Polygon","coordinates":[[[-119.155266,34.433171],[-119.155268,34.43312],[-119.155269,34.43307],[-119.155291,34.43307],[-119.155292,34.433026],[-119.155353,34.433027],[-119.155351,34.433108],[-119.155379,34.433109],[-119.155378,34.433142],[-119.15535,34.433142],[-119.155349,34.433172],[-119.155289,34.433171],[-119.155266,34.433171]]]}},{"type":"Feature","properties":{"layer":"road","authority":"county","name":"SULPHUR MOUNTAIN RD","road_type":"Local","source":"Ventura County GIS DataDownloads/Transportation/15 Road Centerline","note":"centreline only; width unknown"},"geometry":{"type":"LineString","coordinates":[[-119.158639,34.4292],[-119.158961,34.429635],[-119.159024,34.429695],[-119.159103,34.429746],[-119.159192,34.429782],[-119.159285,34.429802],[-119.159619,34.429821],[-119.159782,34.429845],[-119.160133,34.42996],[-119.16028,34.429992],[-119.160887,34.430027],[-119.160973,34.430056],[-119.161036,34.430096],[-119.161086,34.430147],[-119.161121,34.430209],[-119.1613,34.430677]]}},{"type":"Feature","properties":{"layer":"road","authority":"county","name":"E BIG CANYON RD","road_type":"Local","source":"Ventura County GIS DataDownloads/Transportation/15 Road Centerline","note":"centreline only; width unknown"},"geometry":{"type":"LineString","coordinates":[[-119.1613,34.431186],[-119.15938,34.431948],[-119.159046,34.432062],[-119.157844,34.432399],[-119.157239,34.43249],[-119.157132,34.43252],[-119.157032,34.432567],[-119.156691,34.432782],[-119.156613,34.432817],[-119.15645,34.432868],[-119.156204,34.432903],[-119.156041,34.432916],[-119.155714,34.432923],[-119.15555,34.432915],[-119.154994,34.432804]]}}]}