{
  "type": "FeatureCollection",
  "name": "drainage",
  "properties": {
    "authority": "derived",
    "captured": "2018",
    "method": "sink-fill + D8 + flow accumulation; channels >= 2000 m2; simplify 1 m; Strahler",
    "accum_thresh_m2": 2000.0,
    "ford_en_m": [
      275.0,
      234.0
    ],
    "ford_to_main_m": 1.26,
    "generator": "scripts/drainage.py"
  },
  "features": [
    {
      "type": "Feature",
      "properties": {
        "accum_m2": 6142.0,
        "slope_pct": 24.06,
        "order": 2
      },
      "geometry": {
        "type": "LineString",
        "coordinates": [
          [
            -119.1556746,
            34.4318865
          ],
          [
            -119.1556637,
            34.4320397
          ],
          [
            -119.1556093,
            34.432229
          ],
          [
            -119.1556093,
            34.4323733
          ],
          [
            -119.155642,
            34.4324003
          ],
          [
            -119.1556528,
            34.4324724
          ],
          [
            -119.1557072,
            34.4325265
          ],
          [
            -119.1557072,
            34.4325445
          ],
          [
            -119.1557725,
            34.4325986
          ],
          [
            -119.1557725,
            34.4326347
          ],
          [
            -119.1558269,
            34.4326257
          ]
        ]
      }
    },
    {
      "type": "Feature",
      "properties": {
        "accum_m2": 4659.0,
        "slope_pct": 17.54,
        "order": 1
      },
      "geometry": {
        "type": "LineString",
        "coordinates": [
          [
            -119.1571869,
            34.4323552
          ],
          [
            -119.1573065,
            34.4323552
          ],
          [
            -119.1573936,
            34.4323282
          ],
          [
            -119.1575459,
            34.4323372
          ]
        ]
      }
    },
    {
      "type": "Feature",
      "properties": {
        "accum_m2": 4908.0,
        "slope_pct": 4.69,
        "order": 1
      },
      "geometry": {
        "type": "LineString",
        "coordinates": [
          [
            -119.1567843,
            34.4324093
          ],
          [
            -119.1568278,
            34.4323823
          ],
          [
            -119.1568496,
            34.4323913
          ],
          [
            -119.1569149,
            34.4323642
          ],
          [
            -119.1569475,
            34.4323733
          ]
        ]
      }
    },
    {
      "type": "Feature",
      "properties": {
        "accum_m2": 2498.0,
        "slope_pct": 4.24,
        "order": 1,
        "role": "main_creek"
      },
      "geometry": {
        "type": "LineString",
        "coordinates": [
          [
            -119.1563056,
            34.4325445
          ],
          [
            -119.1563709,
            34.4325355
          ],
          [
            -119.1563818,
            34.4325535
          ],
          [
            -119.1564362,
            34.4325535
          ],
          [
            -119.1564797,
            34.4325265
          ],
          [
            -119.1564906,
            34.4325355
          ]
        ]
      }
    },
    {
      "type": "Feature",
      "properties": {
        "accum_m2": 6063.0,
        "slope_pct": 7.29,
        "order": 2
      },
      "geometry": {
        "type": "LineString",
        "coordinates": [
          [
            -119.1556637,
            34.4326437
          ],
          [
            -119.1557181,
            34.4326257
          ],
          [
            -119.1557725,
            34.4326347
          ]
        ]
      }
    },
    {
      "type": "Feature",
      "properties": {
        "accum_m2": 4226.0,
        "slope_pct": 4.53,
        "order": 1
      },
      "geometry": {
        "type": "LineString",
        "coordinates": [
          [
            -119.1557072,
            34.4333559
          ],
          [
            -119.1557943,
            34.4333559
          ],
          [
            -119.1558596,
            34.4333919
          ],
          [
            -119.1559792,
            34.4333559
          ],
          [
            -119.1560771,
            34.4333829
          ],
          [
            -119.1561207,
            34.4333649
          ],
          [
            -119.1561098,
            34.4333559
          ],
          [
            -119.1561533,
            34.4333288
          ],
          [
            -119.1561968,
            34.4333559
          ],
          [
            -119.1562403,
            34.4333378
          ]
        ]
      }
    },
    {
      "type": "Feature",
      "properties": {
        "accum_m2": 4241.0,
        "slope_pct": 5.33,
        "order": 1
      },
      "geometry": {
        "type": "LineString",
        "coordinates": [
          [
            -119.1556746,
            34.4335993
          ],
          [
            -119.1557508,
            34.4335993
          ],
          [
            -119.1557725,
            34.4335812
          ],
          [
            -119.1559357,
            34.4335812
          ],
          [
            -119.1559575,
            34.4335993
          ],
          [
            -119.1561098,
            34.4335902
          ],
          [
            -119.1561533,
            34.4336173
          ],
          [
            -119.1561751,
            34.4336083
          ],
          [
            -119.1561968,
            34.4336353
          ],
          [
            -119.1562512,
            34.4336263
          ],
          [
            -119.156273,
            34.4336443
          ],
          [
            -119.1563165,
            34.4336353
          ],
          [
            -119.1563491,
            34.4336624
          ],
          [
            -119.1563709,
            34.4336443
          ],
          [
            -119.1563927,
            34.4336714
          ],
          [
            -119.1565123,
            34.4336624
          ],
          [
            -119.1565232,
            34.4336804
          ],
          [
            -119.1565667,
            34.4336804
          ]
        ]
      }
    }
  ]
}
