{
  "type": "FeatureCollection",
  "properties": {
    "authority": "derived",
    "evidence": "modelled",
    "weights": {
      "sun_hours_annual": 0.18,
      "sun_hours_dec": 0.12,
      "cold_air_inv": 0.12,
      "thermal_belt": 0.08,
      "twi_inv": 0.1,
      "stormwater_inv": 0.08,
      "wind_santa_ana_inv": 0.1,
      "wind_sea_breeze": 0.04,
      "slope": 0.12,
      "landform": 0.06
    },
    "score_threshold": 0.9495642739428887,
    "generator": "scripts/gathers.py"
  },
  "features": [
    {
      "type": "Feature",
      "properties": {
        "rank": 1,
        "score": 0.9578,
        "area_m2": 1372.0,
        "reasons": [
          "sunny through the year",
          "holds December sun",
          "out of the frost pools"
        ]
      },
      "geometry": {
        "type": "Polygon",
        "coordinates": [
          [
            [
              -119.15596291104642,
              34.43330627341124
            ],
            [
              -119.15596291104642,
              34.43331528809024
            ],
            [
              -119.15596291104642,
              34.43332430276924
            ],
            [
              -119.15596291104642,
              34.43333331744824
            ],
            [
              -119.15597379052166,
              34.43333331744824
            ],
            [
              -119.15598466999688,
              34.43333331744824
            ],
            [
              -119.15599554947212,
              34.43333331744824
            ],
            [
              -119.15600642894736,
              34.43333331744824
            ],
            [
              -119.15600642894736,
              34.43334233212724
            ],
            [
              -119.15599554947212,
              34.43334233212724
            ],
            [
              -119.15598466999688,
              34.43334233212724
            ],
            [
              -119.15597379052166,
              34.43334233212724
            ],
            [
              -119.15597379052166,
              34.43335134680623
            ],
            [
              -119.15597379052166,
              34.433360361485235
            ],
            [
              -119.15596291104642,
              34.433360361485235
            ],
            [
              -119.15595203157118,
              34.433360361485235
            ],
            [
              -119.15595203157118,
              34.43335134680623
            ],
            [
              -119.15594115209593,
              34.43335134680623
            ],
            [
              -119.15593027262071,
              34.43335134680623
            ],
            [
              -119.15591939314547,
              34.43335134680623
            ],
            [
              -119.15591939314547,
              34.433360361485235
            ],
            [
              -119.15591939314547,
              34.43336937616424
            ],
            [
              -119.15590851367023,
              34.43336937616424
            ],
            [
              -119.155897634195,
              34.43336937616424
            ],
            [
              -119.155897634195,
              34.43337839084323
            ],
            [
              -119.15590851367023,
              34.43337839084323
            ],
            [
              -119.15591939314547,
              34.43337839084323
            ],
            [
              -119.15593027262071,
              34.43337839084323
            ],
            [
              -119.15594115209593,
              34.43337839084323
            ],
            [
              -119.15595203157118,
              34.43337839084323
            ],
            [
              -119.15595203157118,
              34.43336937616424
            ],
            [
              -119.15596291104642,
              34.43336937616424
            ],
            [
              -119.15597379052166,
              34.43336937616424
            ],
            [
              -119.15598466999688,
              34.43336937616424
            ],
            [
              -119.15598466999688,
              34.43337839084323
            ],
            [
              -119.15597379052166,
              34.43337839084323
            ],
            [
              -119.15597379052166,
              34.43338740552223
            ],
            [
              -119.15596291104642,
              34.43338740552223
            ],
            [
              -119.15595203157118,
              34.43338740552223
            ],
            [
              -119.15594115209593,
              34.43338740552223
            ],
            [
              -119.15593027262071,
              34.43338740552223
            ],
            [
              -119.15591939314547,
              34.43338740552223
            ],
            [
              -119.15591939314547,
              34.43339642020123
            ],
            [
              -119.15590851367023,
              34.43339642020123
            ],
            [
              -119.15590851367023,
              34.43340543488023
            ],
            [
              -119.15590851367023,
              34.43341444955922
            ],
            [
              -119.15590851367023,
              34.433423464238224
            ],
            [
              -119.15591939314547,
              34.433423464238224
            ],
            [
              -119.15593027262071,
              34.433423464238224
            ],
            [
              -119.15594115209593,
              34.433423464238224
            ],
            [
              -119.15594115209593,
              34.433432478917226
            ],
            [
              -119.15595203157118,
              34.433432478917226
            ],
            [
              -119.15596291104642,
              34.433432478917226
            ],
            [
              -119.15597379052166,
              34.433432478917226
            ],
            [
              -119.15597379052166,
              34.43344149359622
            ],
            [
              -119.15596291104642,
              34.43344149359622
            ],
            [
              -119.15595203157118,
              34.43344149359622
            ],
            [
              -119.15594115209593,
              34.43344149359622
            ],
            [
              -119.15594115209593,
              34.43345050827522
            ],
            [
              -119.15593027262071,
              34.43345050827522
            ],
            [
              -119.15591939314547,
              34.43345050827522
            ],
            [
              -119.15590851367023,
              34.43345050827522
            ],
            [
              -119.15590851367023,
              34.433459522954216
            ],
            [
              -119.155897634195,
              34.433459522954216
            ],
            [
              -119.155897634195,
              34.43345050827522
            ],
            [
              -119.155897634195,
              34.43344149359622
            ],
            [
              -119.15588675471976,
              34.43344149359622
            ],
            [
              -119.15588675471976,
              34.433432478917226
            ],
            [
              -119.15588675471976,
              34.433423464238224
            ],
            [
              -119.15588675471976,
              34.43341444955922
            ],
            [
              -119.15587587524452,
              34.43341444955922
            ],
            [
              -119.15587587524452,
              34.43340543488023
            ],
            [
              -119.15586499576928,
              34.43340543488023
            ],
            [
              -119.15585411629405,
              34.43340543488023
            ],
            [
              -119.15584323681881,
              34.43340543488023
            ],
            [
              -119.15584323681881,
              34.43341444955922
            ],
            [
              -119.15583235734357,
              34.43341444955922
            ],
            [
              -119.15583235734357,
              34.43340543488023
            ],
            [
              -119.15583235734357,
              34.43339642020123
            ],
            [
              -119.15583235734357,
              34.43338740552223
            ],
            [
              -119.15582147786833,
              34.43338740552223
            ],
            [
              -119.1558105983931,
              34.43338740552223
            ],
            [
              -119.15579971891786,
              34.43338740552223
            ],
            [
              -119.15579971891786,
              34.43339642020123
            ],
            [
              -119.15579971891786,
              34.43340543488023
            ],
            [
              -119.15579971891786,
              34.43341444955922
            ],
            [
              -119.15579971891786,
              34.433423464238224
            ],
            [
              -119.15578883944262,
              34.433423464238224
            ],
            [
              -119.15578883944262,
              34.433432478917226
            ],
            [
              -119.15578883944262,
              34.43344149359622
            ],
            [
              -119.1557779599674,
              34.43344149359622
            ],
            [
              -119.1557779599674,
              34.43345050827522
            ],
            [
              -119.15576708049215,
              34.43345050827522
            ],
            [
              -119.15576708049215,
              34.433459522954216
            ],
            [
              -119.15576708049215,
              34.43346853763322
            ],
            [
              -119.15576708049215,
              34.43347755231221
            ],
            [
              -119.1557779599674,
              34.43347755231221
            ],
            [
              -119.15578883944262,
              34.43347755231221
            ],
            [
              -119.15578883944262,
              34.43348656699121
            ],
            [
              -119.15578883944262,
              34.433495581670215
            ],
            [
              -119.1557779599674,
              34.433495581670215
            ],
            [
              -119.15576708049215,
              34.433495581670215
            ],
            [
              -119.15575620101691,
              34.433495581670215
            ],
            [
              -119.15575620101691,
              34.43350459634921
            ],
            [
              -119.15574532154167,
              34.43350459634921
            ],
            [
              -119.15573444206645,
              34.43350459634921
            ],
            [
              -119.15573444206645,
              34.433495581670215
            ],
            [
              -119.15573444206645,
              34.43348656699121
            ],
            [
              -119.1557235625912,
              34.43348656699121
            ],
            [
              -119.15571268311596,
              34.43348656699121
            ],
            [
              -119.15571268311596,
              34.43347755231221
            ],
            [
              -119.15571268311596,
              34.43346853763322
            ],
            [
              -119.15570180364072,
              34.43346853763322
            ],
            [
              -119.15570180364072,
              34.433459522954216
            ],
            [
              -119.15571268311596,
              34.433459522954216
            ],
            [
              -119.1557235625912,
              34.433459522954216
            ],
            [
              -119.1557235625912,
              34.43345050827522
            ],
            [
              -119.1557235625912,
              34.43344149359622
            ],
            [
              -119.1557235625912,
              34.433432478917226
            ],
            [
              -119.15573444206645,
              34.433432478917226
            ],
            [
              -119.15574532154167,
              34.433432478917226
            ],
            [
              -119.15574532154167,
              34.433423464238224
            ],
            [
              -119.15574532154167,
              34.43341444955922
            ],
            [
              -119.15574532154167,
              34.43340543488023
            ],
            [
              -119.15573444206645,
              34.43340543488023
            ],
            [
              -119.1557235625912,
              34.43340543488023
            ],
            [
              -119.15571268311596,
              34.43340543488023
            ],
            [
              -119.15571268311596,
              34.43341444955922
            ],
            [
              -119.15570180364072,
              34.43341444955922
            ],
            [
              -119.1556909241655,
              34.43341444955922
            ],
            [
              -119.1556909241655,
              34.433423464238224
            ],
            [
              -119.1556909241655,
              34.433432478917226
            ],
            [
              -119.15568004469026,
              34.433432478917226
            ],
            [
              -119.15568004469026,
              34.433423464238224
            ],
            [
              -119.15568004469026,
              34.43341444955922
            ],
            [
              -119.15568004469026,
              34.43340543488023
            ],
            [
              -119.15566916521502,
              34.43340543488023
            ],
            [
              -119.15566916521502,
              34.43339642020123
            ],
            [
              -119.15565828573979,
              34.43339642020123
            ],
            [
              -119.15564740626455,
              34.43339642020123
            ],
            [
              -119.15563652678931,
              34.43339642020123
            ],
            [
              -119.15562564731407,
              34.43339642020123
            ],
            [
              -119.15561476783884,
              34.43339642020123
            ],
            [
              -119.1556038883636,
              34.43339642020123
            ],
            [
              -119.15559300888836,
              34.43339642020123
            ],
            [
              -119.15558212941312,
              34.43339642020123
            ],
            [
              -119.15557124993789,
              34.43339642020123
            ],
            [
              -119.15556037046265,
              34.43339642020123
            ],
            [
              -119.15556037046265,
              34.43338740552223
            ],
            [
              -119.15557124993789,
              34.43338740552223
            ],
            [
              -119.15557124993789,
              34.43337839084323
            ],
            [
              -119.15557124993789,
              34.43336937616424
            ],
            [
              -119.15557124993789,
              34.433360361485235
            ],
            [
              -119.15556037046265,
              34.433360361485235
            ],
            [
              -119.15554949098741,
              34.433360361485235
            ],
            [
              -119.15553861151218,
              34.433360361485235
            ],
            [
              -119.15553861151218,
              34.43336937616424
            ],
            [
              -119.15553861151218,
              34.43337839084323
            ],
            [
              -119.15552773203694,
              34.43337839084323
            ],
            [
              -119.1555168525617,
              34.43337839084323
            ],
            [
              -119.15550597308646,
              34.43337839084323
            ],
            [
              -119.15550597308646,
              34.43338740552223
            ],
            [
              -119.15549509361124,
              34.43338740552223
            ],
            [
              -119.155484214136,
              34.43338740552223
            ],
            [
              -119.15547333466075,
              34.43338740552223
            ],
            [
              -119.15547333466075,
              34.43339642020123
            ],
            [
              -119.15547333466075,
              34.43340543488023
            ],
            [
              -119.15547333466075,
              34.43341444955922
            ],
            [
              -119.155484214136,
              34.43341444955922
            ],
            [
              -119.15549509361124,
              34.43341444955922
            ],
            [
              -119.15550597308646,
              34.43341444955922
            ],
            [
              -119.15550597308646,
              34.433423464238224
            ],
            [
              -119.15549509361124,
              34.433423464238224
            ],
            [
              -119.15549509361124,
              34.433432478917226
            ],
            [
              -119.155484214136,
              34.433432478917226
            ],
            [
              -119.15547333466075,
              34.433432478917226
            ],
            [
              -119.15546245518553,
              34.433432478917226
            ],
            [
              -119.15546245518553,
              34.433423464238224
            ],
            [
              -119.15545157571029,
              34.433423464238224
            ],
            [
              -119.15544069623505,
              34.433423464238224
            ],
            [
              -119.1554298167598,
              34.433423464238224
            ],
            [
              -119.1554298167598,
              34.433432478917226
            ],
            [
              -119.1554298167598,
              34.43344149359622
            ],
            [
              -119.1554298167598,
              34.43345050827522
            ],
            [
              -119.15544069623505,
              34.43345050827522
            ],
            [
              -119.15545157571029,
              34.43345050827522
            ],
            [
              -119.15545157571029,
              34.433459522954216
            ],
            [
              -119.15546245518553,
              34.433459522954216
            ],
            [
              -119.15546245518553,
              34.43346853763322
            ],
            [
              -119.15546245518553,
              34.43347755231221
            ],
            [
              -119.15545157571029,
              34.43347755231221
            ],
            [
              -119.15544069623505,
              34.43347755231221
            ],
            [
              -119.1554298167598,
              34.43347755231221
            ],
            [
              -119.15541893728458,
              34.43347755231221
            ],
            [
              -119.15540805780934,
              34.43347755231221
            ],
            [
              -119.1553971783341,
              34.43347755231221
            ],
            [
              -119.15538629885886,
              34.43347755231221
            ],
            [
              -119.15538629885886,
              34.43346853763322
            ],
            [
              -119.15537541938363,
              34.43346853763322
            ],
            [
              -119.15536453990839,
              34.43346853763322
            ],
            [
              -119.15535366043315,
              34.43346853763322
            ],
            [
              -119.15534278095792,
              34.43346853763322
            ],
            [
              -119.15534278095792,
              34.43347755231221
            ],
            [
              -119.15533190148268,
              34.43347755231221
            ],
            [
              -119.15533190148268,
              34.43348656699121
            ],
            [
              -119.15532102200744,
              34.43348656699121
            ],
            [
              -119.1553101425322,
              34.43348656699121
            ],
            [
              -119.15529926305697,
              34.43348656699121
            ],
            [
              -119.15528838358173,
              34.43348656699121
            ],
            [
              -119.1552775041065,
              34.43348656699121
            ],
            [
              -119.15526662463125,
              34.43348656699121
            ],
            [
              -119.15525574515603,
              34.43348656699121
            ],
            [
              -119.15524486568079,
              34.43348656699121
            ],
            [
              -119.15523398620554,
              34.43348656699121
            ],
            [
              -119.15523398620554,
              34.433495581670215
            ],
            [
              -119.15522310673032,
              34.433495581670215
            ],
            [
              -119.15522310673032,
              34.43350459634921
            ],
            [
              -119.15521222725508,
              34.43350459634921
            ],
            [
              -119.15520134777984,
              34.43350459634921
            ],
            [
              -119.1551904683046,
              34.43350459634921
            ],
            [
              -119.15517958882937,
              34.43350459634921
            ],
            [
              -119.15516870935413,
              34.43350459634921
            ],
            [
              -119.15515782987889,
              34.43350459634921
            ],
            [
              -119.15515782987889,
              34.433495581670215
            ],
            [
              -119.15515782987889,
              34.43348656699121
            ],
            [
              -119.15515782987889,
              34.43347755231221
            ],
            [
              -119.15515782987889,
              34.43346853763322
            ],
            [
              -119.15515782987889,
              34.433459522954216
            ],
            [
              -119.15515782987889,
              34.43345050827522
            ],
            [
              -119.15515782987889,
              34.43344149359622
            ],
            [
              -119.15515782987889,
              34.433432478917226
            ],
            [
              -119.15515782987889,
              34.433423464238224
            ],
            [
              -119.15516870935413,
              34.433423464238224
            ],
            [
              -119.15516870935413,
              34.43341444955922
            ],
            [
              -119.15516870935413,
              34.43340543488023
            ],
            [
              -119.15516870935413,
              34.43339642020123
            ],
            [
              -119.15516870935413,
              34.43338740552223
            ],
            [
              -119.15517958882937,
              34.43338740552223
            ],
            [
              -119.15517958882937,
              34.43337839084323
            ],
            [
              -119.15517958882937,
              34.43336937616424
            ],
            [
              -119.15517958882937,
              34.433360361485235
            ],
            [
              -119.15517958882937,
              34.43335134680623
            ],
            [
              -119.15517958882937,
              34.43334233212724
            ],
            [
              -119.15517958882937,
              34.43333331744824
            ],
            [
              -119.15516870935413,
              34.43333331744824
            ],
            [
              -119.15515782987889,
              34.43333331744824
            ],
            [
              -119.15514695040366,
              34.43333331744824
            ],
            [
              -119.15514695040366,
              34.43334233212724
            ],
            [
              -119.15513607092842,
              34.43334233212724
            ],
            [
              -119.15512519145318,
              34.43334233212724
            ],
            [
              -119.15512519145318,
              34.43335134680623
            ],
            [
              -119.15511431197794,
              34.43335134680623
            ],
            [
              -119.15510343250271,
              34.43335134680623
            ],
            [
              -119.15509255302747,
              34.43335134680623
            ],
            [
              -119.15509255302747,
              34.433360361485235
            ],
            [
              -119.15509255302747,
              34.43336937616424
            ],
            [
              -119.15509255302747,
              34.43337839084323
            ],
            [
              -119.15508167355223,
              34.43337839084323
            ],
            [
              -119.15507079407699,
              34.43337839084323
            ],
            [
              -119.15505991460176,
              34.43337839084323
            ],
            [
              -119.15505991460176,
              34.43336937616424
            ],
            [
              -119.15505991460176,
              34.433360361485235
            ],
            [
              -119.15505991460176,
              34.43335134680623
            ],
            [
              -119.15504903512652,
              34.43335134680623
            ],
            [
              -119.15503815565128,
              34.43335134680623
            ],
            [
              -119.15502727617606,
              34.43335134680623
            ],
            [
              -119.15502727617606,
              34.433360361485235
            ],
            [
              -119.15502727617606,
              34.43336937616424
            ],
            [
              -119.15501639670082,
              34.43336937616424
            ],
            [
              -119.15501639670082,
              34.43337839084323
            ],
            [
              -119.15500551722558,
              34.43337839084323
            ],
            [
              -119.15499463775033,
              34.43337839084323
            ],
            [
              -119.15498375827511,
              34.43337839084323
            ],
            [
              -119.15497287879987,
              34.43337839084323
            ],
            [
              -119.15497287879987,
              34.43338740552223
            ],
            [
              -119.15497287879987,
              34.43339642020123
            ],
            [
              -119.15496199932463,
              34.43339642020123
            ],
            [
              -119.15496199932463,
              34.43340543488023
            ],
            [
              -119.15496199932463,
              34.43341444955922
            ],
            [
              -119.15495111984939,
              34.43341444955922
            ],
            [
              -119.15494024037416,
              34.43341444955922
            ],
            [
              -119.15494024037416,
              34.433423464238224
            ],
            [
              -119.15494024037416,
              34.433432478917226
            ],
            [
              -119.15494024037416,
              34.43344149359622
            ],
            [
              -119.15495111984939,
              34.43344149359622
            ],
            [
              -119.15496199932463,
              34.43344149359622
            ],
            [
              -119.15497287879987,
              34.43344149359622
            ],
            [
              -119.15497287879987,
              34.43345050827522
            ],
            [
              -119.15496199932463,
              34.43345050827522
            ],
            [
              -119.15496199932463,
              34.433459522954216
            ],
            [
              -119.15495111984939,
              34.433459522954216
            ],
            [
              -119.15494024037416,
              34.433459522954216
            ],
            [
              -119.15494024037416,
              34.43345050827522
            ],
            [
              -119.15492936089892,
              34.43345050827522
            ],
            [
              -119.15492936089892,
              34.433459522954216
            ],
            [
              -119.15491848142368,
              34.433459522954216
            ],
            [
              -119.15490760194845,
              34.433459522954216
            ],
            [
              -119.15490760194845,
              34.43345050827522
            ],
            [
              -119.15491848142368,
              34.43345050827522
            ],
            [
              -119.15491848142368,
              34.43344149359622
            ],
            [
              -119.15492936089892,
              34.43344149359622
            ],
            [
              -119.15492936089892,
              34.433432478917226
            ],
            [
              -119.15492936089892,
              34.433423464238224
            ],
            [
              -119.15492936089892,
              34.43341444955922
            ],
            [
              -119.15491848142368,
              34.43341444955922
            ],
            [
              -119.15490760194845,
              34.43341444955922
            ],
            [
              -119.15489672247321,
              34.43341444955922
            ],
            [
              -119.15489672247321,
              34.43340543488023
            ],
            [
              -119.15490760194845,
              34.43340543488023
            ],
            [
              -119.15490760194845,
              34.43339642020123
            ],
            [
              -119.15490760194845,
              34.43338740552223
            ],
            [
              -119.15490760194845,
              34.43337839084323
            ],
            [
              -119.15489672247321,
              34.43337839084323
            ],
            [
              -119.15489672247321,
              34.43336937616424
            ],
            [
              -119.15490760194845,
              34.43336937616424
            ],
            [
              -119.15490760194845,
              34.433360361485235
            ],
            [
              -119.15490760194845,
              34.43335134680623
            ],
            [
              -119.15490760194845,
              34.43334233212724
            ],
            [
              -119.15489672247321,
              34.43334233212724
            ],
            [
              -119.15489672247321,
              34.43333331744824
            ],
            [
              -119.15490760194845,
              34.43333331744824
            ],
            [
              -119.15491848142368,
              34.43333331744824
            ],
            [
              -119.15491848142368,
              34.43332430276924
            ],
            [
              -119.15491848142368,
              34.43331528809024
            ],
            [
              -119.15491848142368,
              34.43330627341124
            ],
            [
              -119.15491848142368,
              34.433297258732246
            ],
            [
              -119.15490760194845,
              34.433297258732246
            ],
            [
              -119.15490760194845,
              34.433288244053244
            ],
            [
              -119.15491848142368,
              34.433288244053244
            ],
            [
              -119.15491848142368,
              34.43327922937425
            ],
            [
              -119.15491848142368,
              34.43327021469525
            ],
            [
              -119.15491848142368,
              34.433261200016254
            ],
            [
              -119.15492936089892,
              34.433261200016254
            ],
            [
              -119.15494024037416,
              34.433261200016254
            ],
            [
              -119.15494024037416,
              34.43327021469525
            ],
            [
              -119.15494024037416,
              34.43327922937425
            ],
            [
              -119.15495111984939,
              34.43327922937425
            ],
            [
              -119.15496199932463,
              34.43327922937425
            ],
            [
              -119.15497287879987,
              34.43327922937425
            ],
            [
              -119.15497287879987,
              34.43327021469525
            ],
            [
              -119.15497287879987,
              34.433261200016254
            ],
            [
              -119.15497287879987,
              34.43325218533725
            ],
            [
              -119.15497287879987,
              34.43324317065825
            ],
            [
              -119.15496199932463,
              34.43324317065825
            ],
            [
              -119.15496199932463,
              34.43323415597926
            ],
            [
              -119.15496199932463,
              34.433225141300255
            ],
            [
              -119.15495111984939,
              34.433225141300255
            ],
            [
              -119.15494024037416,
              34.433225141300255
            ],
            [
              -119.15492936089892,
              34.433225141300255
            ],
            [
              -119.15492936089892,
              34.43323415597926
            ],
            [
              -119.15492936089892,
              34.43324317065825
            ],
            [
              -119.15491848142368,
              34.43324317065825
            ],
            [
              -119.15491848142368,
              34.43323415597926
            ],
            [
              -119.15491848142368,
              34.433225141300255
            ],
            [
              -119.15490760194845,
              34.433225141300255
            ],
            [
              -119.15490760194845,
              34.43321612662126
            ],
            [
              -119.15490760194845,
              34.43320711194226
            ],
            [
              -119.15490760194845,
              34.433198097263265
            ],
            [
              -119.15491848142368,
              34.433198097263265
            ],
            [
              -119.15491848142368,
              34.43318908258426
            ],
            [
              -119.15491848142368,
              34.43318006790526
            ],
            [
              -119.15491848142368,
              34.43317105322627
            ],
            [
              -119.15490760194845,
              34.43317105322627
            ],
            [
              -119.15489672247321,
              34.43317105322627
            ],
            [
              -119.15489672247321,
              34.433162038547266
            ],
            [
              -119.15490760194845,
              34.433162038547266
            ],
            [
              -119.15490760194845,
              34.43315302386827
            ],
            [
              -119.15490760194845,
              34.43314400918927
            ],
            [
              -119.15490760194845,
              34.433134994510276
            ],
            [
              -119.15491848142368,
              34.433134994510276
            ],
            [
              -119.15491848142368,
              34.433125979831274
            ],
            [
              -119.15491848142368,
              34.43311696515227
            ],
            [
              -119.15491848142368,
              34.43310795047328
            ],
            [
              -119.15491848142368,
              34.43309893579428
            ],
            [
              -119.15491848142368,
              34.43308992111528
            ],
            [
              -119.15490760194845,
              34.43308992111528
            ],
            [
              -119.15489672247321,
              34.43308992111528
            ],
            [
              -119.15489672247321,
              34.43308090643628
            ],
            [
              -119.15489672247321,
              34.43307189175729
            ],
            [
              -119.15489672247321,
              34.433062877078285
            ],
            [
              -119.15490760194845,
              34.433062877078285
            ],
            [
              -119.15490760194845,
              34.433053862399284
            ],
            [
              -119.15491848142368,
              34.433053862399284
            ],
            [
              -119.15491848142368,
              34.433062877078285
            ],
            [
              -119.15491848142368,
              34.43307189175729
            ],
            [
              -119.15492936089892,
              34.43307189175729
            ],
            [
              -119.15494024037416,
              34.43307189175729
            ],
            [
              -119.15494024037416,
              34.43308090643628
            ],
            [
              -119.15494024037416,
              34.43308992111528
            ],
            [
              -119.15494024037416,
              34.43309893579428
            ],
            [
              -119.15494024037416,
              34.43310795047328
            ],
            [
              -119.15494024037416,
              34.43311696515227
            ],
            [
              -119.15495111984939,
              34.43311696515227
            ],
            [
              -119.15495111984939,
              34.433125979831274
            ],
            [
              -119.15495111984939,
              34.433134994510276
            ],
            [
              -119.15495111984939,
              34.43314400918927
            ],
            [
              -119.15495111984939,
              34.43315302386827
            ],
            [
              -119.15495111984939,
              34.433162038547266
            ],
            [
              -119.15495111984939,
              34.43317105322627
            ],
            [
              -119.15495111984939,
              34.43318006790526
            ],
            [
              -119.15496199932463,
              34.43318006790526
            ],
            [
              -119.15496199932463,
              34.43318908258426
            ],
            [
              -119.15497287879987,
              34.43318908258426
            ],
            [
              -119.15498375827511,
              34.43318908258426
            ],
            [
              -119.15499463775033,
              34.43318908258426
            ],
            [
              -119.15499463775033,
              34.43318006790526
            ],
            [
              -119.15499463775033,
              34.43317105322627
            ],
            [
              -119.15500551722558,
              34.43317105322627
            ],
            [
              -119.15501639670082,
              34.43317105322627
            ],
            [
              -119.15502727617606,
              34.43317105322627
            ],
            [
              -119.15503815565128,
              34.43317105322627
            ],
            [
              -119.15503815565128,
              34.433162038547266
            ],
            [
              -119.15504903512652,
              34.433162038547266
            ],
            [
              -119.15504903512652,
              34.43315302386827
            ],
            [
              -119.15504903512652,
              34.43314400918927
            ],
            [
              -119.15504903512652,
              34.433134994510276
            ],
            [
              -119.15504903512652,
              34.433125979831274
            ],
            [
              -119.15505991460176,
              34.433125979831274
            ],
            [
              -119.15507079407699,
              34.433125979831274
            ],
            [
              -119.15507079407699,
              34.43311696515227
            ],
            [
              -119.15508167355223,
              34.43311696515227
            ],
            [
              -119.15508167355223,
              34.433125979831274
            ],
            [
              -119.15508167355223,
              34.433134994510276
            ],
            [
              -119.15509255302747,
              34.433134994510276
            ],
            [
              -119.15510343250271,
              34.433134994510276
            ],
            [
              -119.15510343250271,
              34.43314400918927
            ],
            [
              -119.15509255302747,
              34.43314400918927
            ],
            [
              -119.15509255302747,
              34.43315302386827
            ],
            [
              -119.15508167355223,
              34.43315302386827
            ],
            [
              -119.15507079407699,
              34.43315302386827
            ],
            [
              -119.15507079407699,
              34.433162038547266
            ],
            [
              -119.15507079407699,
              34.43317105322627
            ],
            [
              -119.15507079407699,
              34.43318006790526
            ],
            [
              -119.15508167355223,
              34.43318006790526
            ],
            [
              -119.15508167355223,
              34.43318908258426
            ],
            [
              -119.15509255302747,
              34.43318908258426
            ],
            [
              -119.15509255302747,
              34.433198097263265
            ],
            [
              -119.15509255302747,
              34.43320711194226
            ],
            [
              -119.15510343250271,
              34.43320711194226
            ],
            [
              -119.15510343250271,
              34.43321612662126
            ],
            [
              -119.15510343250271,
              34.433225141300255
            ],
            [
              -119.15510343250271,
              34.43323415597926
            ],
            [
              -119.15509255302747,
              34.43323415597926
            ],
            [
              -119.15509255302747,
              34.43324317065825
            ],
            [
              -119.15509255302747,
              34.43325218533725
            ],
            [
              -119.15509255302747,
              34.433261200016254
            ],
            [
              -119.15509255302747,
              34.43327021469525
            ],
            [
              -119.15509255302747,
              34.43327922937425
            ],
            [
              -119.15509255302747,
              34.433288244053244
            ],
            [
              -119.15509255302747,
              34.433297258732246
            ],
            [
              -119.15510343250271,
              34.433297258732246
            ],
            [
              -119.15511431197794,
              34.433297258732246
            ],
            [
              -119.15512519145318,
              34.433297258732246
            ],
            [
              -119.15513607092842,
              34.433297258732246
            ],
            [
              -119.15513607092842,
              34.433288244053244
            ],
            [
              -119.15513607092842,
              34.43327922937425
            ],
            [
              -119.15513607092842,
              34.43327021469525
            ],
            [
              -119.15513607092842,
              34.433261200016254
            ],
            [
              -119.15512519145318,
              34.433261200016254
            ],
            [
              -119.15512519145318,
              34.43325218533725
            ],
            [
              -119.15513607092842,
              34.43325218533725
            ],
            [
              -119.15513607092842,
              34.43324317065825
            ],
            [
              -119.15514695040366,
              34.43324317065825
            ],
            [
              -119.15514695040366,
              34.43325218533725
            ],
            [
              -119.15514695040366,
              34.433261200016254
            ],
            [
              -119.15515782987889,
              34.433261200016254
            ],
            [
              -119.15515782987889,
              34.43327021469525
            ],
            [
              -119.15515782987889,
              34.43327922937425
            ],
            [
              -119.15515782987889,
              34.433288244053244
            ],
            [
              -119.15515782987889,
              34.433297258732246
            ],
            [
              -119.15515782987889,
              34.43330627341124
            ],
            [
              -119.15516870935413,
              34.43330627341124
            ],
            [
              -119.15517958882937,
              34.43330627341124
            ],
            [
              -119.1551904683046,
              34.43330627341124
            ],
            [
              -119.1551904683046,
              34.433297258732246
            ],
            [
              -119.1551904683046,
              34.433288244053244
            ],
            [
              -119.1551904683046,
              34.43327922937425
            ],
            [
              -119.15520134777984,
              34.43327922937425
            ],
            [
              -119.15521222725508,
              34.43327922937425
            ],
            [
              -119.15521222725508,
              34.433288244053244
            ],
            [
              -119.15522310673032,
              34.433288244053244
            ],
            [
              -119.15523398620554,
              34.433288244053244
            ],
            [
              -119.15523398620554,
              34.433297258732246
            ],
            [
              -119.15523398620554,
              34.43330627341124
            ],
            [
              -119.15524486568079,
              34.43330627341124
            ],
            [
              -119.15524486568079,
              34.43331528809024
            ],
            [
              -119.15524486568079,
              34.43332430276924
            ],
            [
              -119.15525574515603,
              34.43332430276924
            ],
            [
              -119.15526662463125,
              34.43332430276924
            ],
            [
              -119.15526662463125,
              34.43333331744824
            ],
            [
              -119.1552775041065,
              34.43333331744824
            ],
            [
              -119.15528838358173,
              34.43333331744824
            ],
            [
              -119.15529926305697,
              34.43333331744824
            ],
            [
              -119.1553101425322,
              34.43333331744824
            ],
            [
              -119.15532102200744,
              34.43333331744824
            ],
            [
              -119.15533190148268,
              34.43333331744824
            ],
            [
              -119.15534278095792,
              34.43333331744824
            ],
            [
              -119.15535366043315,
              34.43333331744824
            ],
            [
              -119.15536453990839,
              34.43333331744824
            ],
            [
              -119.15536453990839,
              34.43334233212724
            ],
            [
              -119.15536453990839,
              34.43335134680623
            ],
            [
              -119.15537541938363,
              34.43335134680623
            ],
            [
              -119.15538629885886,
              34.43335134680623
            ],
            [
              -119.1553971783341,
              34.43335134680623
            ],
            [
              -119.1553971783341,
              34.43334233212724
            ],
            [
              -119.1553971783341,
              34.43333331744824
            ],
            [
              -119.1553971783341,
              34.43332430276924
            ],
            [
              -119.15540805780934,
              34.43332430276924
            ],
            [
              -119.15541893728458,
              34.43332430276924
            ],
            [
              -119.1554298167598,
              34.43332430276924
            ],
            [
              -119.15544069623505,
              34.43332430276924
            ],
            [
              -119.15545157571029,
              34.43332430276924
            ],
            [
              -119.15546245518553,
              34.43332430276924
            ],
            [
              -119.15547333466075,
              34.43332430276924
            ],
            [
              -119.155484214136,
              34.43332430276924
            ],
            [
              -119.15549509361124,
              34.43332430276924
            ],
            [
              -119.15550597308646,
              34.43332430276924
            ],
            [
              -119.15550597308646,
              34.43331528809024
            ],
            [
              -119.1555168525617,
              34.43331528809024
            ],
            [
              -119.15552773203694,
              34.43331528809024
            ],
            [
              -119.15553861151218,
              34.43331528809024
            ],
            [
              -119.15554949098741,
              34.43331528809024
            ],
            [
              -119.15554949098741,
              34.43330627341124
            ],
            [
              -119.15556037046265,
              34.43330627341124
            ],
            [
              -119.15556037046265,
              34.433297258732246
            ],
            [
              -119.15557124993789,
              34.433297258732246
            ],
            [
              -119.15557124993789,
              34.43330627341124
            ],
            [
              -119.15558212941312,
              34.43330627341124
            ],
            [
              -119.15559300888836,
              34.43330627341124
            ],
            [
              -119.1556038883636,
              34.43330627341124
            ],
            [
              -119.1556038883636,
              34.433297258732246
            ],
            [
              -119.15561476783884,
              34.433297258732246
            ],
            [
              -119.15562564731407,
              34.433297258732246
            ],
            [
              -119.15563652678931,
              34.433297258732246
            ],
            [
              -119.15564740626455,
              34.433297258732246
            ],
            [
              -119.15565828573979,
              34.433297258732246
            ],
            [
              -119.15565828573979,
              34.43330627341124
            ],
            [
              -119.15566916521502,
              34.43330627341124
            ],
            [
              -119.15568004469026,
              34.43330627341124
            ],
            [
              -119.1556909241655,
              34.43330627341124
            ],
            [
              -119.15570180364072,
              34.43330627341124
            ],
            [
              -119.15571268311596,
              34.43330627341124
            ],
            [
              -119.15571268311596,
              34.43331528809024
            ],
            [
              -119.15571268311596,
              34.43332430276924
            ],
            [
              -119.1557235625912,
              34.43332430276924
            ],
            [
              -119.15573444206645,
              34.43332430276924
            ],
            [
              -119.15574532154167,
              34.43332430276924
            ],
            [
              -119.15575620101691,
              34.43332430276924
            ],
            [
              -119.15575620101691,
              34.43331528809024
            ],
            [
              -119.15576708049215,
              34.43331528809024
            ],
            [
              -119.1557779599674,
              34.43331528809024
            ],
            [
              -119.1557779599674,
              34.43330627341124
            ],
            [
              -119.1557779599674,
              34.433297258732246
            ],
            [
              -119.15578883944262,
              34.433297258732246
            ],
            [
              -119.15578883944262,
              34.43330627341124
            ],
            [
              -119.15578883944262,
              34.43331528809024
            ],
            [
              -119.15578883944262,
              34.43332430276924
            ],
            [
              -119.15578883944262,
              34.43333331744824
            ],
            [
              -119.15578883944262,
              34.43334233212724
            ],
            [
              -119.15579971891786,
              34.43334233212724
            ],
            [
              -119.1558105983931,
              34.43334233212724
            ],
            [
              -119.15582147786833,
              34.43334233212724
            ],
            [
              -119.15583235734357,
              34.43334233212724
            ],
            [
              -119.15583235734357,
              34.43335134680623
            ],
            [
              -119.15583235734357,
              34.433360361485235
            ],
            [
              -119.15584323681881,
              34.433360361485235
            ],
            [
              -119.15585411629405,
              34.433360361485235
            ],
            [
              -119.15586499576928,
              34.433360361485235
            ],
            [
              -119.15586499576928,
              34.43335134680623
            ],
            [
              -119.15586499576928,
              34.43334233212724
            ],
            [
              -119.15586499576928,
              34.43333331744824
            ],
            [
              -119.15586499576928,
              34.43332430276924
            ],
            [
              -119.15587587524452,
              34.43332430276924
            ],
            [
              -119.15587587524452,
              34.43331528809024
            ],
            [
              -119.15588675471976,
              34.43331528809024
            ],
            [
              -119.15588675471976,
              34.43332430276924
            ],
            [
              -119.15588675471976,
              34.43333331744824
            ],
            [
              -119.155897634195,
              34.43333331744824
            ],
            [
              -119.155897634195,
              34.43334233212724
            ],
            [
              -119.15590851367023,
              34.43334233212724
            ],
            [
              -119.15591939314547,
              34.43334233212724
            ],
            [
              -119.15593027262071,
              34.43334233212724
            ],
            [
              -119.15593027262071,
              34.43333331744824
            ],
            [
              -119.15593027262071,
              34.43332430276924
            ],
            [
              -119.15593027262071,
              34.43331528809024
            ],
            [
              -119.15591939314547,
              34.43331528809024
            ],
            [
              -119.15591939314547,
              34.43330627341124
            ],
            [
              -119.15593027262071,
              34.43330627341124
            ],
            [
              -119.15594115209593,
              34.43330627341124
            ],
            [
              -119.15594115209593,
              34.433297258732246
            ],
            [
              -119.15595203157118,
              34.433297258732246
            ],
            [
              -119.15596291104642,
              34.433297258732246
            ],
            [
              -119.15597379052166,
              34.433297258732246
            ],
            [
              -119.15598466999688,
              34.433297258732246
            ],
            [
              -119.15598466999688,
              34.43330627341124
            ],
            [
              -119.15597379052166,
              34.43330627341124
            ],
            [
              -119.15596291104642,
              34.43330627341124
            ]
          ]
        ]
      }
    },
    {
      "type": "Feature",
      "properties": {
        "rank": 2,
        "score": 0.9555,
        "area_m2": 320.0,
        "reasons": [
          "sunny through the year",
          "holds December sun",
          "gentle ground"
        ]
      },
      "geometry": {
        "type": "Polygon",
        "coordinates": [
          [
            [
              -119.15641984900635,
              34.433288244053244
            ],
            [
              -119.15640896953113,
              34.433288244053244
            ],
            [
              -119.15639809005589,
              34.433288244053244
            ],
            [
              -119.15638721058065,
              34.433288244053244
            ],
            [
              -119.1563763311054,
              34.433288244053244
            ],
            [
              -119.1563763311054,
              34.433297258732246
            ],
            [
              -119.1563763311054,
              34.43330627341124
            ],
            [
              -119.15636545163018,
              34.43330627341124
            ],
            [
              -119.15635457215494,
              34.43330627341124
            ],
            [
              -119.1563436926797,
              34.43330627341124
            ],
            [
              -119.1563436926797,
              34.43331528809024
            ],
            [
              -119.1563436926797,
              34.43332430276924
            ],
            [
              -119.1563436926797,
              34.43333331744824
            ],
            [
              -119.1563436926797,
              34.43334233212724
            ],
            [
              -119.1563436926797,
              34.43335134680623
            ],
            [
              -119.15635457215494,
              34.43335134680623
            ],
            [
              -119.15636545163018,
              34.43335134680623
            ],
            [
              -119.1563763311054,
              34.43335134680623
            ],
            [
              -119.15638721058065,
              34.43335134680623
            ],
            [
              -119.15639809005589,
              34.43335134680623
            ],
            [
              -119.15639809005589,
              34.433360361485235
            ],
            [
              -119.15639809005589,
              34.43336937616424
            ],
            [
              -119.15638721058065,
              34.43336937616424
            ],
            [
              -119.1563763311054,
              34.43336937616424
            ],
            [
              -119.1563763311054,
              34.43337839084323
            ],
            [
              -119.1563763311054,
              34.43338740552223
            ],
            [
              -119.1563763311054,
              34.43339642020123
            ],
            [
              -119.15638721058065,
              34.43339642020123
            ],
            [
              -119.15639809005589,
              34.43339642020123
            ],
            [
              -119.15640896953113,
              34.43339642020123
            ],
            [
              -119.15640896953113,
              34.43340543488023
            ],
            [
              -119.15640896953113,
              34.43341444955922
            ],
            [
              -119.15641984900635,
              34.43341444955922
            ],
            [
              -119.1564307284816,
              34.43341444955922
            ],
            [
              -119.15644160795684,
              34.43341444955922
            ],
            [
              -119.15644160795684,
              34.433423464238224
            ],
            [
              -119.15644160795684,
              34.433432478917226
            ],
            [
              -119.15644160795684,
              34.43344149359622
            ],
            [
              -119.15644160795684,
              34.43345050827522
            ],
            [
              -119.15644160795684,
              34.433459522954216
            ],
            [
              -119.15644160795684,
              34.43346853763322
            ],
            [
              -119.1564307284816,
              34.43346853763322
            ],
            [
              -119.1564307284816,
              34.433459522954216
            ],
            [
              -119.1564307284816,
              34.43345050827522
            ],
            [
              -119.1564307284816,
              34.43344149359622
            ],
            [
              -119.15641984900635,
              34.43344149359622
            ],
            [
              -119.15640896953113,
              34.43344149359622
            ],
            [
              -119.15639809005589,
              34.43344149359622
            ],
            [
              -119.15638721058065,
              34.43344149359622
            ],
            [
              -119.15638721058065,
              34.43345050827522
            ],
            [
              -119.15638721058065,
              34.433459522954216
            ],
            [
              -119.1563763311054,
              34.433459522954216
            ],
            [
              -119.1563763311054,
              34.43345050827522
            ],
            [
              -119.15636545163018,
              34.43345050827522
            ],
            [
              -119.15635457215494,
              34.43345050827522
            ],
            [
              -119.1563436926797,
              34.43345050827522
            ],
            [
              -119.15633281320446,
              34.43345050827522
            ],
            [
              -119.15633281320446,
              34.43344149359622
            ],
            [
              -119.1563436926797,
              34.43344149359622
            ],
            [
              -119.1563436926797,
              34.433432478917226
            ],
            [
              -119.1563436926797,
              34.433423464238224
            ],
            [
              -119.1563436926797,
              34.43341444955922
            ],
            [
              -119.15633281320446,
              34.43341444955922
            ],
            [
              -119.15633281320446,
              34.43340543488023
            ],
            [
              -119.15633281320446,
              34.43339642020123
            ],
            [
              -119.15633281320446,
              34.43338740552223
            ],
            [
              -119.15632193372923,
              34.43338740552223
            ],
            [
              -119.15631105425399,
              34.43338740552223
            ],
            [
              -119.15630017477875,
              34.43338740552223
            ],
            [
              -119.15628929530352,
              34.43338740552223
            ],
            [
              -119.15627841582828,
              34.43338740552223
            ],
            [
              -119.15627841582828,
              34.43339642020123
            ],
            [
              -119.15626753635304,
              34.43339642020123
            ],
            [
              -119.15626753635304,
              34.43338740552223
            ],
            [
              -119.15626753635304,
              34.43337839084323
            ],
            [
              -119.15626753635304,
              34.43336937616424
            ],
            [
              -119.15626753635304,
              34.433360361485235
            ],
            [
              -119.15627841582828,
              34.433360361485235
            ],
            [
              -119.15627841582828,
              34.43336937616424
            ],
            [
              -119.15627841582828,
              34.43337839084323
            ],
            [
              -119.15628929530352,
              34.43337839084323
            ],
            [
              -119.15630017477875,
              34.43337839084323
            ],
            [
              -119.15631105425399,
              34.43337839084323
            ],
            [
              -119.15632193372923,
              34.43337839084323
            ],
            [
              -119.15632193372923,
              34.43336937616424
            ],
            [
              -119.15632193372923,
              34.433360361485235
            ],
            [
              -119.15632193372923,
              34.43335134680623
            ],
            [
              -119.15632193372923,
              34.43334233212724
            ],
            [
              -119.15632193372923,
              34.43333331744824
            ],
            [
              -119.15631105425399,
              34.43333331744824
            ],
            [
              -119.15630017477875,
              34.43333331744824
            ],
            [
              -119.15628929530352,
              34.43333331744824
            ],
            [
              -119.15627841582828,
              34.43333331744824
            ],
            [
              -119.15626753635304,
              34.43333331744824
            ],
            [
              -119.1562566568778,
              34.43333331744824
            ],
            [
              -119.1562566568778,
              34.43334233212724
            ],
            [
              -119.15624577740257,
              34.43334233212724
            ],
            [
              -119.15624577740257,
              34.43333331744824
            ],
            [
              -119.15624577740257,
              34.43332430276924
            ],
            [
              -119.15624577740257,
              34.43331528809024
            ],
            [
              -119.15623489792733,
              34.43331528809024
            ],
            [
              -119.1562240184521,
              34.43331528809024
            ],
            [
              -119.15621313897687,
              34.43331528809024
            ],
            [
              -119.15621313897687,
              34.43332430276924
            ],
            [
              -119.15621313897687,
              34.43333331744824
            ],
            [
              -119.15621313897687,
              34.43334233212724
            ],
            [
              -119.15620225950163,
              34.43334233212724
            ],
            [
              -119.15620225950163,
              34.43335134680623
            ],
            [
              -119.15619138002639,
              34.43335134680623
            ],
            [
              -119.15619138002639,
              34.43334233212724
            ],
            [
              -119.15618050055114,
              34.43334233212724
            ],
            [
              -119.15616962107592,
              34.43334233212724
            ],
            [
              -119.15616962107592,
              34.43333331744824
            ],
            [
              -119.15615874160068,
              34.43333331744824
            ],
            [
              -119.15615874160068,
              34.43332430276924
            ],
            [
              -119.15614786212544,
              34.43332430276924
            ],
            [
              -119.15614786212544,
              34.43333331744824
            ],
            [
              -119.1561369826502,
              34.43333331744824
            ],
            [
              -119.15612610317497,
              34.43333331744824
            ],
            [
              -119.15611522369973,
              34.43333331744824
            ],
            [
              -119.15611522369973,
              34.43334233212724
            ],
            [
              -119.15610434422449,
              34.43334233212724
            ],
            [
              -119.15610434422449,
              34.43335134680623
            ],
            [
              -119.15610434422449,
              34.433360361485235
            ],
            [
              -119.15609346474926,
              34.433360361485235
            ],
            [
              -119.15609346474926,
              34.43336937616424
            ],
            [
              -119.15608258527402,
              34.43336937616424
            ],
            [
              -119.15607170579878,
              34.43336937616424
            ],
            [
              -119.15607170579878,
              34.433360361485235
            ],
            [
              -119.15606082632354,
              34.433360361485235
            ],
            [
              -119.15604994684831,
              34.433360361485235
            ],
            [
              -119.15603906737307,
              34.433360361485235
            ],
            [
              -119.15603906737307,
              34.43335134680623
            ],
            [
              -119.15604994684831,
              34.43335134680623
            ],
            [
              -119.15604994684831,
              34.43334233212724
            ],
            [
              -119.15604994684831,
              34.43333331744824
            ],
            [
              -119.15604994684831,
              34.43332430276924
            ],
            [
              -119.15606082632354,
              34.43332430276924
            ],
            [
              -119.15607170579878,
              34.43332430276924
            ],
            [
              -119.15607170579878,
              34.43331528809024
            ],
            [
              -119.15607170579878,
              34.43330627341124
            ],
            [
              -119.15607170579878,
              34.433297258732246
            ],
            [
              -119.15606082632354,
              34.433297258732246
            ],
            [
              -119.15606082632354,
              34.433288244053244
            ],
            [
              -119.15607170579878,
              34.433288244053244
            ],
            [
              -119.15608258527402,
              34.433288244053244
            ],
            [
              -119.15609346474926,
              34.433288244053244
            ],
            [
              -119.15609346474926,
              34.43327922937425
            ],
            [
              -119.15609346474926,
              34.43327021469525
            ],
            [
              -119.15609346474926,
              34.433261200016254
            ],
            [
              -119.15609346474926,
              34.43325218533725
            ],
            [
              -119.15610434422449,
              34.43325218533725
            ],
            [
              -119.15611522369973,
              34.43325218533725
            ],
            [
              -119.15612610317497,
              34.43325218533725
            ],
            [
              -119.1561369826502,
              34.43325218533725
            ],
            [
              -119.1561369826502,
              34.43324317065825
            ],
            [
              -119.15614786212544,
              34.43324317065825
            ],
            [
              -119.15615874160068,
              34.43324317065825
            ],
            [
              -119.15615874160068,
              34.43323415597926
            ],
            [
              -119.15616962107592,
              34.43323415597926
            ],
            [
              -119.15618050055114,
              34.43323415597926
            ],
            [
              -119.15618050055114,
              34.433225141300255
            ],
            [
              -119.15619138002639,
              34.433225141300255
            ],
            [
              -119.15620225950163,
              34.433225141300255
            ],
            [
              -119.15621313897687,
              34.433225141300255
            ],
            [
              -119.1562240184521,
              34.433225141300255
            ],
            [
              -119.1562240184521,
              34.43323415597926
            ],
            [
              -119.15623489792733,
              34.43323415597926
            ],
            [
              -119.15623489792733,
              34.43324317065825
            ],
            [
              -119.1562240184521,
              34.43324317065825
            ],
            [
              -119.15621313897687,
              34.43324317065825
            ],
            [
              -119.15621313897687,
              34.43325218533725
            ],
            [
              -119.15621313897687,
              34.433261200016254
            ],
            [
              -119.15621313897687,
              34.43327021469525
            ],
            [
              -119.1562240184521,
              34.43327021469525
            ],
            [
              -119.15623489792733,
              34.43327021469525
            ],
            [
              -119.15623489792733,
              34.43327922937425
            ],
            [
              -119.15623489792733,
              34.433288244053244
            ],
            [
              -119.15623489792733,
              34.433297258732246
            ],
            [
              -119.15624577740257,
              34.433297258732246
            ],
            [
              -119.15624577740257,
              34.43330627341124
            ],
            [
              -119.1562566568778,
              34.43330627341124
            ],
            [
              -119.1562566568778,
              34.43331528809024
            ],
            [
              -119.15626753635304,
              34.43331528809024
            ],
            [
              -119.15627841582828,
              34.43331528809024
            ],
            [
              -119.15628929530352,
              34.43331528809024
            ],
            [
              -119.15628929530352,
              34.43330627341124
            ],
            [
              -119.15628929530352,
              34.433297258732246
            ],
            [
              -119.15628929530352,
              34.433288244053244
            ],
            [
              -119.15627841582828,
              34.433288244053244
            ],
            [
              -119.15627841582828,
              34.43327922937425
            ],
            [
              -119.15628929530352,
              34.43327922937425
            ],
            [
              -119.15630017477875,
              34.43327922937425
            ],
            [
              -119.15631105425399,
              34.43327922937425
            ],
            [
              -119.15632193372923,
              34.43327922937425
            ],
            [
              -119.15633281320446,
              34.43327922937425
            ],
            [
              -119.1563436926797,
              34.43327922937425
            ],
            [
              -119.15635457215494,
              34.43327922937425
            ],
            [
              -119.15636545163018,
              34.43327922937425
            ],
            [
              -119.1563763311054,
              34.43327922937425
            ],
            [
              -119.15638721058065,
              34.43327922937425
            ],
            [
              -119.15639809005589,
              34.43327922937425
            ],
            [
              -119.15639809005589,
              34.43327021469525
            ],
            [
              -119.15639809005589,
              34.433261200016254
            ],
            [
              -119.15639809005589,
              34.43325218533725
            ],
            [
              -119.15640896953113,
              34.43325218533725
            ],
            [
              -119.15640896953113,
              34.43324317065825
            ],
            [
              -119.15641984900635,
              34.43324317065825
            ],
            [
              -119.1564307284816,
              34.43324317065825
            ],
            [
              -119.15644160795684,
              34.43324317065825
            ],
            [
              -119.15644160795684,
              34.43325218533725
            ],
            [
              -119.15644160795684,
              34.433261200016254
            ],
            [
              -119.1564307284816,
              34.433261200016254
            ],
            [
              -119.15641984900635,
              34.433261200016254
            ],
            [
              -119.15641984900635,
              34.43327021469525
            ],
            [
              -119.15641984900635,
              34.43327922937425
            ],
            [
              -119.15641984900635,
              34.433288244053244
            ]
          ]
        ]
      }
    },
    {
      "type": "Feature",
      "properties": {
        "rank": 3,
        "score": 0.9536,
        "area_m2": 102.0,
        "reasons": [
          "sunny through the year",
          "holds December sun",
          "gentle ground"
        ]
      },
      "geometry": {
        "type": "Polygon",
        "coordinates": [
          [
            [
              -119.15600642894736,
              34.432765392671335
            ],
            [
              -119.15600642894736,
              34.43277440735034
            ],
            [
              -119.15601730842259,
              34.43277440735034
            ],
            [
              -119.15602818789783,
              34.43277440735034
            ],
            [
              -119.15603906737307,
              34.43277440735034
            ],
            [
              -119.15603906737307,
              34.432765392671335
            ],
            [
              -119.15604994684831,
              34.432765392671335
            ],
            [
              -119.15604994684831,
              34.43277440735034
            ],
            [
              -119.15606082632354,
              34.43277440735034
            ],
            [
              -119.15607170579878,
              34.43277440735034
            ],
            [
              -119.15608258527402,
              34.43277440735034
            ],
            [
              -119.15609346474926,
              34.43277440735034
            ],
            [
              -119.15610434422449,
              34.43277440735034
            ],
            [
              -119.15611522369973,
              34.43277440735034
            ],
            [
              -119.15612610317497,
              34.43277440735034
            ],
            [
              -119.15612610317497,
              34.43278342202933
            ],
            [
              -119.15611522369973,
              34.43278342202933
            ],
            [
              -119.15610434422449,
              34.43278342202933
            ],
            [
              -119.15609346474926,
              34.43278342202933
            ],
            [
              -119.15608258527402,
              34.43278342202933
            ],
            [
              -119.15607170579878,
              34.43278342202933
            ],
            [
              -119.15606082632354,
              34.43278342202933
            ],
            [
              -119.15604994684831,
              34.43278342202933
            ],
            [
              -119.15603906737307,
              34.43278342202933
            ],
            [
              -119.15602818789783,
              34.43278342202933
            ],
            [
              -119.15601730842259,
              34.43278342202933
            ],
            [
              -119.15601730842259,
              34.43279243670833
            ],
            [
              -119.15600642894736,
              34.43279243670833
            ],
            [
              -119.15600642894736,
              34.43280145138733
            ],
            [
              -119.15599554947212,
              34.43280145138733
            ],
            [
              -119.15598466999688,
              34.43280145138733
            ],
            [
              -119.15597379052166,
              34.43280145138733
            ],
            [
              -119.15596291104642,
              34.43280145138733
            ],
            [
              -119.15596291104642,
              34.43279243670833
            ],
            [
              -119.15595203157118,
              34.43279243670833
            ],
            [
              -119.15594115209593,
              34.43279243670833
            ],
            [
              -119.15593027262071,
              34.43279243670833
            ],
            [
              -119.15593027262071,
              34.43280145138733
            ],
            [
              -119.15593027262071,
              34.43281046606633
            ],
            [
              -119.15593027262071,
              34.43281948074533
            ],
            [
              -119.15593027262071,
              34.432828495424324
            ],
            [
              -119.15593027262071,
              34.432837510103326
            ],
            [
              -119.15594115209593,
              34.432837510103326
            ],
            [
              -119.15594115209593,
              34.43284652478232
            ],
            [
              -119.15593027262071,
              34.43284652478232
            ],
            [
              -119.15591939314547,
              34.43284652478232
            ],
            [
              -119.15591939314547,
              34.432837510103326
            ],
            [
              -119.15591939314547,
              34.432828495424324
            ],
            [
              -119.15591939314547,
              34.43281948074533
            ],
            [
              -119.15591939314547,
              34.43281046606633
            ],
            [
              -119.15591939314547,
              34.43280145138733
            ],
            [
              -119.15590851367023,
              34.43280145138733
            ],
            [
              -119.155897634195,
              34.43280145138733
            ],
            [
              -119.15588675471976,
              34.43280145138733
            ],
            [
              -119.15588675471976,
              34.43281046606633
            ],
            [
              -119.15588675471976,
              34.43281948074533
            ],
            [
              -119.15588675471976,
              34.432828495424324
            ],
            [
              -119.15587587524452,
              34.432828495424324
            ],
            [
              -119.15586499576928,
              34.432828495424324
            ],
            [
              -119.15586499576928,
              34.432837510103326
            ],
            [
              -119.15585411629405,
              34.432837510103326
            ],
            [
              -119.15585411629405,
              34.432828495424324
            ],
            [
              -119.15585411629405,
              34.43281948074533
            ],
            [
              -119.15584323681881,
              34.43281948074533
            ],
            [
              -119.15583235734357,
              34.43281948074533
            ],
            [
              -119.15582147786833,
              34.43281948074533
            ],
            [
              -119.15582147786833,
              34.432828495424324
            ],
            [
              -119.15582147786833,
              34.432837510103326
            ],
            [
              -119.15582147786833,
              34.43284652478232
            ],
            [
              -119.15583235734357,
              34.43284652478232
            ],
            [
              -119.15584323681881,
              34.43284652478232
            ],
            [
              -119.15584323681881,
              34.43285553946132
            ],
            [
              -119.15583235734357,
              34.43285553946132
            ],
            [
              -119.15583235734357,
              34.432864554140316
            ],
            [
              -119.15582147786833,
              34.432864554140316
            ],
            [
              -119.1558105983931,
              34.432864554140316
            ],
            [
              -119.15579971891786,
              34.432864554140316
            ],
            [
              -119.15578883944262,
              34.432864554140316
            ],
            [
              -119.15578883944262,
              34.43285553946132
            ],
            [
              -119.1557779599674,
              34.43285553946132
            ],
            [
              -119.1557779599674,
              34.43284652478232
            ],
            [
              -119.1557779599674,
              34.432837510103326
            ],
            [
              -119.15576708049215,
              34.432837510103326
            ],
            [
              -119.15576708049215,
              34.432828495424324
            ],
            [
              -119.1557779599674,
              34.432828495424324
            ],
            [
              -119.15578883944262,
              34.432828495424324
            ],
            [
              -119.15578883944262,
              34.43281948074533
            ],
            [
              -119.15579971891786,
              34.43281948074533
            ],
            [
              -119.1558105983931,
              34.43281948074533
            ],
            [
              -119.1558105983931,
              34.43281046606633
            ],
            [
              -119.1558105983931,
              34.43280145138733
            ],
            [
              -119.15582147786833,
              34.43280145138733
            ],
            [
              -119.15583235734357,
              34.43280145138733
            ],
            [
              -119.15583235734357,
              34.43279243670833
            ],
            [
              -119.15584323681881,
              34.43279243670833
            ],
            [
              -119.15584323681881,
              34.43280145138733
            ],
            [
              -119.15585411629405,
              34.43280145138733
            ],
            [
              -119.15586499576928,
              34.43280145138733
            ],
            [
              -119.15587587524452,
              34.43280145138733
            ],
            [
              -119.15587587524452,
              34.43279243670833
            ],
            [
              -119.15588675471976,
              34.43279243670833
            ],
            [
              -119.15588675471976,
              34.43278342202933
            ],
            [
              -119.15588675471976,
              34.43277440735034
            ],
            [
              -119.155897634195,
              34.43277440735034
            ],
            [
              -119.15590851367023,
              34.43277440735034
            ],
            [
              -119.15591939314547,
              34.43277440735034
            ],
            [
              -119.15593027262071,
              34.43277440735034
            ],
            [
              -119.15594115209593,
              34.43277440735034
            ],
            [
              -119.15594115209593,
              34.432765392671335
            ],
            [
              -119.15595203157118,
              34.432765392671335
            ],
            [
              -119.15595203157118,
              34.43275637799234
            ],
            [
              -119.15596291104642,
              34.43275637799234
            ],
            [
              -119.15597379052166,
              34.43275637799234
            ],
            [
              -119.15597379052166,
              34.43274736331334
            ],
            [
              -119.15598466999688,
              34.43274736331334
            ],
            [
              -119.15598466999688,
              34.43275637799234
            ],
            [
              -119.15599554947212,
              34.43275637799234
            ],
            [
              -119.15599554947212,
              34.432765392671335
            ],
            [
              -119.15600642894736,
              34.432765392671335
            ]
          ]
        ]
      }
    }
  ]
}
