{"type":"FeatureCollection","features":[{"type":"Feature","properties":{"layer":"roof","authority":"derived","source":"USGS 3DEP lidar CA_SoCal_Wildfires_B3_2018 (flown 2018), under-canopy surface: lowest return per 0.5 m cell in the 1.6-9 m band, planar (5x5 residual < 0.28 m)","kind":"warehouse (McQueen's Garage)","area_m2":157.5,"roof_m":3.95,"roof_p90_m":4.14,"canopy_over_m":4.2,"ground_m":421.9,"county_footprint":null,"note":"157 m2 planar roof at 4.0 m, 2 m from the McQueen's Garage anchor — the 3,200 sq ft warehouse the county does not map; the planar detector caught the clean part of the roof, the true footprint is larger","zone":"mcqueens-garage"},"geometry":{"type":"Polygon","coordinates":[[[-119.1553076,34.4325785],[-119.155289,34.432573],[-119.155188,34.4325751],[-119.1551474,34.4325626],[-119.1551408,34.4325409],[-119.1551502,34.4325159],[-119.1551469,34.4324774],[-119.1551735,34.432472],[-119.1551808,34.4324867],[-119.1551981,34.4324878],[-119.155202,34.4325008],[-119.15522,34.4325133],[-119.1552612,34.4325003],[-119.1552705,34.4325123],[-119.155347,34.4324945],[-119.1553603,34.4325194],[-119.1553523,34.4325303],[-119.1553562,34.4325433],[-119.1553416,34.4325509],[-119.1553396,34.432572],[-119.1553076,34.4325785]]]}},{"type":"Feature","properties":{"layer":"roof","authority":"derived","source":"USGS 3DEP lidar CA_SoCal_Wildfires_B3_2018 (flown 2018), under-canopy surface: lowest return per 0.5 m cell in the 1.6-9 m band, planar (5x5 residual < 0.28 m)","kind":"shed","area_m2":20.8,"roof_m":2.53,"roof_p90_m":2.68,"canopy_over_m":14.6,"ground_m":420.53,"county_footprint":0,"note":"the visible part of county footprint #0 (43 m2) under 15 m of canopy; the footprint's own point histogram puts the roof at 2.4-2.6 m"},"geometry":{"type":"Polygon","coordinates":[[[-119.1556239,34.4327632],[-119.155586,34.4327593],[-119.1555774,34.4327219],[-119.1555987,34.4327176],[-119.1556146,34.4327328],[-119.1556339,34.4327312],[-119.1556405,34.4327529],[-119.1556239,34.4327632]]]}},{"type":"Feature","properties":{"layer":"roof","authority":"derived","source":"USGS 3DEP lidar CA_SoCal_Wildfires_B3_2018 (flown 2018), under-canopy surface: lowest return per 0.5 m cell in the 1.6-9 m band, planar (5x5 residual < 0.28 m)","kind":"house","area_m2":57.8,"roof_m":2.43,"roof_p90_m":3.77,"canopy_over_m":4.3,"ground_m":425.45,"county_footprint":2,"note":"the visible part of county footprint #2 (122 m2) under 12 m of canopy; the footprint's own point histogram puts the roof at 3.3-4.0 m (single storey, assessor 1,277 sq ft)"},"geometry":{"type":"Polygon","coordinates":[[[-119.1553733,34.4331089],[-119.15536,34.4330839],[-119.1552915,34.4330909],[-119.1552875,34.4330779],[-119.1553102,34.4330595],[-119.1553043,34.4330307],[-119.1553202,34.4330275],[-119.1553468,34.4330405],[-119.155398,34.4330509],[-119.1554112,34.4330943],[-119.1553733,34.4331089]]]}}]}