{"type":"FeatureCollection","features":[{"type":"Feature","properties":{"layer":"boundary","authority":"survey","source":"Henry Land Surveying Inc., Jeremy Henry PLS 8135 — topographic survey dated 2024-11-14, NAD 83 CA State Plane Zone 5 (US ft), NAVD 88; county Building & Safety approved 2026-01-30; transcribed in the atlas (EcoVillage-map data/sulphur-survey.json)","legal":"Parcel 2, per map filed June 15, 1973 in Book 14, Page 15 of Parcel Maps, Ventura County Recorder","record_map":"14-PM-15","record_map_url":"https://maps.ventura.org/recordmaps/pm/014/014pm015.pdf","apn":"037-0-012-125","area_acres":9.465,"perimeter_ft":2999,"closure_ft":0.007,"placement":"Traverse anchored to the county parcel fabric on the Sulphur Mountain Rd frontage (agreement there under 1 ft); the county fabric drifts up to 29 ft west of the record line along the west side."},"geometry":{"type":"Polygon","coordinates":[[[-119.1548396,34.4335522],[-119.1569291,34.4335632],[-119.1569371,34.4325257],[-119.1578497,34.4323837],[-119.1578505,34.4322793],[-119.15694,34.432141],[-119.1569426,34.4317976],[-119.1549996,34.4317873],[-119.1549928,34.4326631],[-119.1549783,34.4328552],[-119.154845,34.4328545],[-119.1548396,34.4335522]]]}},{"type":"Feature","properties":{"layer":"call","authority":"survey","n":1,"from":"NE corner (found iron pipe)","to":"NW corner (found iron pipe)","bearing":"N90°00'00\"W","distance_ft":630.04},"geometry":{"type":"LineString","coordinates":[[-119.1548396,34.4335522],[-119.1569291,34.4335632]]}},{"type":"Feature","properties":{"layer":"call","authority":"survey","n":2,"from":"NW corner (found iron pipe)","to":"W line / panhandle top","bearing":"N00°00'00\"E","distance_ft":377.58},"geometry":{"type":"LineString","coordinates":[[-119.1569291,34.4335632],[-119.1569371,34.4325257]]}},{"type":"Feature","properties":{"layer":"call","authority":"survey","n":3,"from":"W line / panhandle top","to":"panhandle tip N (found iron pipe)","bearing":"N79°00'00\"E","distance_ft":280.0},"geometry":{"type":"LineString","coordinates":[[-119.1569371,34.4325257],[-119.1578497,34.4323837]]}},{"type":"Feature","properties":{"layer":"call","authority":"survey","n":4,"from":"panhandle tip N (found iron pipe)","to":"panhandle tip S","bearing":"N00°00'00\"E","distance_ft":38.0},"geometry":{"type":"LineString","coordinates":[[-119.1578497,34.4323837],[-119.1578505,34.4322793]]}},{"type":"Feature","properties":{"layer":"call","authority":"survey","n":5,"from":"panhandle tip S","to":"W line / panhandle bottom","bearing":"N79°58'41\"W","distance_ft":279.12},"geometry":{"type":"LineString","coordinates":[[-119.1578505,34.4322793],[-119.15694,34.432141]]}},{"type":"Feature","properties":{"layer":"call","authority":"survey","n":6,"from":"W line / panhandle bottom","to":"SW corner","bearing":"N00°00'00\"E","distance_ft":125.0},"geometry":{"type":"LineString","coordinates":[[-119.15694,34.432141],[-119.1569426,34.4317976]]}},{"type":"Feature","properties":{"layer":"call","authority":"survey","n":7,"from":"SW corner","to":"SE corner","bearing":"N90°00'00\"E","distance_ft":585.92},"geometry":{"type":"LineString","coordinates":[[-119.1569426,34.4317976],[-119.1549996,34.4317873]]}},{"type":"Feature","properties":{"layer":"call","authority":"survey","n":8,"from":"SE corner","to":"notch, lower inner","bearing":"N00°00'00\"E","distance_ft":318.72},"geometry":{"type":"LineString","coordinates":[[-119.1549996,34.4317873],[-119.1549928,34.4326631]]}},{"type":"Feature","properties":{"layer":"call","authority":"survey","n":9,"from":"notch, lower inner","to":"notch, upper inner","bearing":"N03°13'00\"E","distance_ft":70.06},"geometry":{"type":"LineString","coordinates":[[-119.1549928,34.4326631],[-119.1549783,34.4328552]]}},{"type":"Feature","properties":{"layer":"call","authority":"survey","n":10,"from":"notch, upper inner","to":"notch, outer","bearing":"N90°00'00\"E","distance_ft":40.19},"geometry":{"type":"LineString","coordinates":[[-119.1549783,34.4328552],[-119.154845,34.4328545]]}},{"type":"Feature","properties":{"layer":"call","authority":"survey","n":11,"from":"notch, outer","to":"NE corner (found iron pipe)","bearing":"N00°00'00\"E","distance_ft":253.91},"geometry":{"type":"LineString","coordinates":[[-119.154845,34.4328545],[-119.1548396,34.4335522]]}},{"type":"Feature","properties":{"layer":"easement","authority":"survey","name":"16 ft access easement","part":1,"note":"drawn on the sheet along the north edge of the panhandle and up the west line; which parcel it burdens or benefits is in the recorded documents"},"geometry":{"type":"Polygon","coordinates":[[[-119.1578545,34.4324054],[-119.1569419,34.4325474],[-119.1569321,34.4325041],[-119.1578447,34.4323621],[-119.1578545,34.4324054]]]}},{"type":"Feature","properties":{"layer":"easement","authority":"survey","name":"16 ft access easement","part":2,"note":"drawn on the sheet along the north edge of the panhandle and up the west line; which parcel it burdens or benefits is in the recorded documents"},"geometry":{"type":"Polygon","coordinates":[[[-119.1569635,34.4325259],[-119.1569556,34.4335634],[-119.1569025,34.4335631],[-119.1569105,34.4325256],[-119.1569635,34.4325259]]]}},{"type":"Feature","properties":{"layer":"monument","authority":"survey","label":"Found iron pipe, 0.75 ft from corner"},"geometry":{"type":"Point","coordinates":[-119.1548396,34.4335522]}},{"type":"Feature","properties":{"layer":"monument","authority":"survey","label":"Found iron pipe, 3.72 ft from corner"},"geometry":{"type":"Point","coordinates":[-119.156929,34.4335633]}},{"type":"Feature","properties":{"layer":"monument","authority":"survey","label":"Found lead & tack in concrete footing"},"geometry":{"type":"Point","coordinates":[-119.1569305,34.4333737]}},{"type":"Feature","properties":{"layer":"monument","authority":"survey","label":"Found iron pipe (panhandle tip)"},"geometry":{"type":"Point","coordinates":[-119.1578496,34.4323838]}}]}