{"type":"FeatureCollection","features":[{"type":"Feature","properties":{"id":"agricultural-hub","name":"Agricultural Hub","type":"agriculture","mode":"vision","emoji":"🌾","summary":"Fruit tree propagation, extensive gardens, educational components, and organic nursery products.","placeholder":true},"geometry":{"type":"Point","coordinates":[-119.155982,34.433478]}},{"type":"Feature","properties":{"id":"main-residence","name":"Main Residence Compound","type":"residential","mode":"both","emoji":"🏠","summary":"4,000-5,000 sq ft modern eco-retreat center with bio-architecture, curved designs, and regenerative building materials - the operational hub of the EcoVillage.","lidar_2018":"2018 lidar: the house, county footprint #2, roof at 3.3-4.0 m under 12 m of canopy","placeholder":true},"geometry":{"type":"Point","coordinates":[-119.155333,34.433118]}},{"type":"Feature","properties":{"id":"community-hub","name":"Community Hub","type":"community","mode":"vision","emoji":"🏛️","summary":"Outdoor community hub centered around a restored 100+ year old fireplace kitchen, natural gathering spaces, and creek-side seating. Serves as the heart of community life with farm-to-table events, shared meal preparation","placeholder":true},"geometry":{"type":"Point","coordinates":[-119.155387,34.432771]}},{"type":"Feature","properties":{"id":"retreat-village","name":"Retreat Village","type":"hospitality","mode":"vision","emoji":"🏡","summary":"Luxury eco-cabin retreat village nestled on the hillside with 8-10 individually designed cabins (150-300 sq ft each). A mix of 5 high-end retreat cabins and 5 residential cabins for land stewards and community members. E","placeholder":true},"geometry":{"type":"Point","coordinates":[-119.155628,34.432173]}},{"type":"Feature","properties":{"id":"infrastructure","name":"Infrastructure & Utilities","type":"infrastructure","mode":"vision","emoji":"⚡","summary":"Strategic infrastructure and utilities foundation enabling all village development. Phased water system upgrades (maintenance, creek extension, hillside expansion), electric reactivation with solar integration, hillside ","placeholder":true},"geometry":{"type":"Point","coordinates":[-119.155966,34.432386]}},{"type":"Feature","properties":{"id":"mcqueens-garage","name":"McQueen's Garage","type":"creative","mode":"both","emoji":"🎭","summary":"The legendary 3,200 sq ft warehouse from the Steve McQueen era — today it is simply the garage: solid, storied, and waiting. The vision transforms it into the creative ceremony and gathering space described on the Vision","lidar_2018":"2018 lidar: a strong roof plane at 3.5-4.5 m here (1,500 returns) — this is roofs.geojson #0, the 157 m2 planar part of the warehouse; the county maps no structure","placeholder":true},"geometry":{"type":"Point","coordinates":[-119.155279,34.432549]}},{"type":"Feature","properties":{"id":"ceremonial-infrastructure","name":"Ceremonial Infrastructure","type":"ceremonial","mode":"vision","emoji":"🔮","summary":"Main ceremonial infrastructure featuring a natural stone and earthen kiva with sacred fire circle, positioned directly in front of McQueen's Garage to integrate with live events, ceremonies, and retreat programming. The ","placeholder":true},"geometry":{"type":"Point","coordinates":[-119.155582,34.432501]}},{"type":"Feature","properties":{"id":"wellness-facilities","name":"Storage Structures","type":"wellness","mode":"both","emoji":"🧘","summary":"Today these are storage structures — practical buildings holding equipment and materials for the property. In the vision this spot becomes the Wellness & Spa Facilities.","lidar_2018":"2018 lidar: no clean roof at this point, only canopy at 6.5-8 m; the sheds the survey draws nearby are not resolved","placeholder":true},"geometry":{"type":"Point","coordinates":[-119.155062,34.43293]}},{"type":"Feature","properties":{"id":"mushroom-cultivation","name":"Mushroom Cultivation","type":"agriculture","mode":"vision","emoji":"🍄","summary":"Commercial mushroom production facility that can operate as an on-site vehicle, mobile commercial unit, or local regenerative supply hub. Multiple growing environments support fresh culinary mushrooms, medicinal extracts","placeholder":true},"geometry":{"type":"Point","coordinates":[-119.156218,34.433474]}},{"type":"Feature","properties":{"id":"beekeeping-program","name":"Beekeeping & Honey Production","type":"beekeeping","mode":"vision","emoji":"🐝","summary":"Collaborative beekeeping initiative with local beekeepers for honey production, bee products, and pollination services through partnership model.","placeholder":true},"geometry":{"type":"Point","coordinates":[-119.15582,34.433477]}},{"type":"Feature","properties":{"id":"events-gatherings-hub","name":"Events & Gatherings Hub","type":"events","mode":"vision","emoji":"🎪","summary":"Strategic events and gatherings infrastructure designed as a major revenue hub for retreats, ceremonies, festivals, workshops, and collaborative gatherings—central to community ethos and diversified income streams.","placeholder":true},"geometry":{"type":"Point","coordinates":[-119.155065,34.433394]}},{"type":"Feature","properties":{"id":"livestock-dairy","name":"Livestock & Dairy Program","type":"agriculture","mode":"vision","emoji":"🐄","summary":"Regenerative livestock and dairy farm producing organic dairy, grass-fed meat, fiber products, and eggs. The farm operates on rotational grazing principles for land regeneration, featuring goats, sheep, alpacas, horses, ","placeholder":true},"geometry":{"type":"Point","coordinates":[-119.156143,34.432797]}},{"type":"Feature","properties":{"id":"creative-workshop-center","name":"Creative Workshop & Art Creation Center","type":"creative","mode":"vision","emoji":"🎨","summary":"Multi-use creative workshop serving as a multipurpose learning and creation space with woodwork, pottery, natural building workshops, and sacred art creation.","placeholder":true},"geometry":{"type":"Point","coordinates":[-119.156486,34.43347]}},{"type":"Feature","properties":{"id":"glamping-creek-village","name":"Creek-Side Glamping & Lodging Village","type":"hospitality","mode":"vision","emoji":"🏕️","summary":"Unique creek-side lodging village with 10-25+ glamping units including teepees, yurts, and safari tents along the seasonal creek corridor for nature immersion experiences. Starting with 5 tipis in Phase 1, with phased ex","placeholder":true},"geometry":{"type":"Point","coordinates":[-119.15654,34.432479]}},{"type":"Feature","properties":{"id":"gatelodge-operations-hub","name":"The Barn","type":"infrastructure","mode":"both","emoji":"🏘️","summary":"Today the structure at the property entrance is a working barn — storage and ranch utility right by the gate. The vision converts it into the Sulphur Mountain Gatelodge, the operations ADU that welcomes every arrival.","lidar_2018":"2018 lidar: a small low roof, about 2.2 m, under 6-7 m of canopy at this point (roughly 190 returns, ~28 m2) — smaller than a barn; to confirm on site","placeholder":true},"geometry":{"type":"Point","coordinates":[-119.156728,34.433082]}},{"type":"Feature","properties":{"id":"tropical-dome-greenhouse","name":"Tropical Dome Greenhouse","type":"agriculture","mode":"vision","emoji":"🌴","summary":"Geodesic dome greenhouse for year-round tropical plant cultivation, propagation station, and seedling nursery - enabling exotic fruit production and plant starts in a controlled microclimate.","lidar_2018":"2018 lidar: nothing built here; canopy 8-9 m and 17 m","placeholder":true},"geometry":{"type":"Point","coordinates":[-119.156763,34.432888]}},{"type":"Feature","properties":{"id":"sulphur-mountain-sanctuary","name":"Sulphur Mountain Sanctuary: The Living Landscape","type":"landscape","mode":"vision","emoji":"🌺","summary":"An immersive living environment where beauty and abundance intertwine, featuring regenerative food forests, sacred geometry gardens, and curated nature pathways that create seamless flow between gathering spaces and natu","placeholder":true},"geometry":{"type":"Point","coordinates":[-119.155827,34.433038]}},{"type":"Feature","properties":{"id":"farmstead-produce-stand","name":"Farmstead Produce Stand & Online Hub","type":"agriculture","mode":"vision","emoji":"🛒","summary":"Central direct-to-consumer sales hub at the property entrance, serving as the primary sales channel for all regenerative farm products, livestock goods, and artisan creations. Combines physical roadside farm stand with r","placeholder":true},"geometry":{"type":"Point","coordinates":[-119.156935,34.432483]}}]}