{
  "type": "FeatureCollection",
  "properties": {
    "authority": "derived",
    "evidence": "modelled",
    "storm_mm": 25.0,
    "generator": "scripts/water-harvest.py"
  },
  "features": [
    {
      "type": "Feature",
      "properties": {
        "id": "swale-1",
        "kind": "swale",
        "catchment_m2": 3815.0,
        "length_m": 25.0,
        "section_m2": 0.15,
        "capacity_m3": 3.75,
        "event_volume_m3": 34.34,
        "needed_section_m2": 1.373,
        "holds_event": false
      },
      "geometry": {
        "type": "LineString",
        "coordinates": [
          [
            -119.15697470224345,
            34.4323822688139
          ],
          [
            -119.15670271536251,
            34.4323822688139
          ]
        ]
      }
    },
    {
      "type": "Feature",
      "properties": {
        "id": "swale-2",
        "kind": "swale",
        "catchment_m2": 3649.0,
        "length_m": 25.0,
        "section_m2": 0.15,
        "capacity_m3": 3.75,
        "event_volume_m3": 32.84,
        "needed_section_m2": 1.314,
        "holds_event": false
      },
      "geometry": {
        "type": "LineString",
        "coordinates": [
          [
            -119.15574532154169,
            34.43222901927093
          ],
          [
            -119.15547333466075,
            34.43222901927093
          ]
        ]
      }
    },
    {
      "type": "Feature",
      "properties": {
        "id": "swale-3",
        "kind": "swale",
        "catchment_m2": 3276.0,
        "length_m": 25.0,
        "section_m2": 0.15,
        "capacity_m3": 3.75,
        "event_volume_m3": 29.48,
        "needed_section_m2": 1.179,
        "holds_event": false
      },
      "geometry": {
        "type": "LineString",
        "coordinates": [
          [
            -119.15615874160068,
            34.43336486882473
          ],
          [
            -119.15588675471975,
            34.43336486882473
          ]
        ]
      }
    },
    {
      "type": "Feature",
      "properties": {
        "id": "swale-4",
        "kind": "swale",
        "catchment_m2": 2074.0,
        "length_m": 25.0,
        "section_m2": 0.15,
        "capacity_m3": 3.75,
        "event_volume_m3": 18.67,
        "needed_section_m2": 0.747,
        "holds_event": false
      },
      "geometry": {
        "type": "LineString",
        "coordinates": [
          [
            -119.15586499576929,
            34.43359925047869
          ],
          [
            -119.15559300888836,
            34.43359925047869
          ]
        ]
      }
    },
    {
      "type": "Feature",
      "properties": {
        "id": "swale-5",
        "kind": "swale",
        "catchment_m2": 2066.0,
        "length_m": 25.0,
        "section_m2": 0.15,
        "capacity_m3": 3.75,
        "event_volume_m3": 18.59,
        "needed_section_m2": 0.744,
        "holds_event": false
      },
      "geometry": {
        "type": "LineString",
        "coordinates": [
          [
            -119.1558105983931,
            34.43190449082698
          ],
          [
            -119.15553861151217,
            34.43190449082698
          ]
        ]
      }
    },
    {
      "type": "Feature",
      "properties": {
        "id": "swale-6",
        "kind": "swale",
        "catchment_m2": 1711.0,
        "length_m": 25.0,
        "section_m2": 0.15,
        "capacity_m3": 3.75,
        "event_volume_m3": 15.4,
        "needed_section_m2": 0.616,
        "holds_event": false
      },
      "geometry": {
        "type": "LineString",
        "coordinates": [
          [
            -119.15508167355225,
            34.4323912834929
          ],
          [
            -119.15480968667131,
            34.4323912834929
          ]
        ]
      }
    },
    {
      "type": "Feature",
      "properties": {
        "id": "swale-7",
        "kind": "swale",
        "catchment_m2": 1373.0,
        "length_m": 25.0,
        "section_m2": 0.15,
        "capacity_m3": 3.75,
        "event_volume_m3": 12.36,
        "needed_section_m2": 0.494,
        "holds_event": false
      },
      "geometry": {
        "type": "LineString",
        "coordinates": [
          [
            -119.15562564731408,
            34.43329275139275
          ],
          [
            -119.15535366043315,
            34.43329275139275
          ]
        ]
      }
    },
    {
      "type": "Feature",
      "properties": {
        "id": "swale-8",
        "kind": "swale",
        "catchment_m2": 577.0,
        "length_m": 25.0,
        "section_m2": 0.15,
        "capacity_m3": 3.75,
        "event_volume_m3": 5.19,
        "needed_section_m2": 0.208,
        "holds_event": false
      },
      "geometry": {
        "type": "LineString",
        "coordinates": [
          [
            -119.15511431197795,
            34.43207576972795
          ],
          [
            -119.15484232509702,
            34.43207576972795
          ]
        ]
      }
    },
    {
      "type": "Feature",
      "properties": {
        "id": "pond-1",
        "kind": "pond",
        "catchment_m2": 1452.0,
        "event_volume_m3": 13.07,
        "season_volume_m3": 130.7,
        "pond_capacity_m3": 241.3,
        "radius_m": 8.0,
        "depth_m_assumed": 1.2,
        "buildable_score": 0.654,
        "east_m": 277.8,
        "north_m": 263.8
      },
      "geometry": {
        "type": "Polygon",
        "coordinates": [
          [
            [
              -119.1563708913678,
              34.432814973405826
            ],
            [
              -119.15637131046897,
              34.432807904661374
            ],
            [
              -119.15637256373633,
              34.4328009039928
            ],
            [
              -119.1563746391002,
              34.43279403882036
            ],
            [
              -119.15637751657373,
              34.43278737525942
            ],
            [
              -119.15638116844524,
              34.43278097748372
            ],
            [
              -119.15638555954523,
              34.43277490710734
            ],
            [
              -119.156390647585,
              34.432769222591304
            ],
            [
              -119.15639638356396,
              34.432763978680626
            ],
            [
              -119.15640271224149,
              34.43275922587703
            ],
            [
              -119.15640957266895,
              34.432755009952615
            ],
            [
              -119.15641689877668,
              34.43275137150903
            ],
            [
              -119.15642462001028,
              34.432748345586475
            ],
            [
              -119.15643266201002,
              34.43274596132625
            ],
            [
              -119.15644094732707,
              34.432744241690074
            ],
            [
              -119.15644939616928,
              34.432743203238985
            ],
            [
              -119.15645792716968,
              34.43274285597384
            ],
            [
              -119.1564664581701,
              34.432743203238985
            ],
            [
              -119.15647490701231,
              34.432744241690074
            ],
            [
              -119.15648319232935,
              34.43274596132625
            ],
            [
              -119.1564912343291,
              34.432748345586475
            ],
            [
              -119.15649895556268,
              34.43275137150903
            ],
            [
              -119.15650628167043,
              34.432755009952615
            ],
            [
              -119.1565131420979,
              34.43275922587703
            ],
            [
              -119.15651947077541,
              34.432763978680626
            ],
            [
              -119.15652520675437,
              34.432769222591304
            ],
            [
              -119.15653029479414,
              34.43277490710734
            ],
            [
              -119.15653468589414,
              34.43278097748372
            ],
            [
              -119.15653833776565,
              34.43278737525942
            ],
            [
              -119.15654121523917,
              34.43279403882036
            ],
            [
              -119.15654329060305,
              34.4328009039928
            ],
            [
              -119.15654454387041,
              34.432807904661374
            ],
            [
              -119.15654496297158,
              34.432814973405826
            ],
            [
              -119.15654454387041,
              34.43282204215028
            ],
            [
              -119.15654329060305,
              34.43282904281886
            ],
            [
              -119.15654121523917,
              34.4328359079913
            ],
            [
              -119.15653833776565,
              34.432842571552236
            ],
            [
              -119.15653468589414,
              34.432848969327935
            ],
            [
              -119.15653029479414,
              34.43285503970432
            ],
            [
              -119.15652520675437,
              34.432860724220355
            ],
            [
              -119.15651947077541,
              34.432865968131026
            ],
            [
              -119.1565131420979,
              34.43287072093462
            ],
            [
              -119.15650628167043,
              34.432874936859044
            ],
            [
              -119.15649895556268,
              34.43287857530263
            ],
            [
              -119.1564912343291,
              34.432881601225176
            ],
            [
              -119.15648319232935,
              34.432883985485404
            ],
            [
              -119.15647490701231,
              34.432885705121585
            ],
            [
              -119.1564664581701,
              34.432886743572666
            ],
            [
              -119.15645792716968,
              34.432887090837816
            ],
            [
              -119.15644939616928,
              34.432886743572666
            ],
            [
              -119.15644094732707,
              34.432885705121585
            ],
            [
              -119.15643266201002,
              34.432883985485404
            ],
            [
              -119.15642462001028,
              34.432881601225176
            ],
            [
              -119.15641689877668,
              34.43287857530263
            ],
            [
              -119.15640957266895,
              34.432874936859044
            ],
            [
              -119.15640271224149,
              34.43287072093462
            ],
            [
              -119.15639638356396,
              34.432865968131026
            ],
            [
              -119.156390647585,
              34.432860724220355
            ],
            [
              -119.15638555954523,
              34.43285503970432
            ],
            [
              -119.15638116844524,
              34.432848969327935
            ],
            [
              -119.15637751657373,
              34.432842571552236
            ],
            [
              -119.1563746391002,
              34.4328359079913
            ],
            [
              -119.15637256373633,
              34.43282904281886
            ],
            [
              -119.15637131046897,
              34.43282204215028
            ],
            [
              -119.1563708913678,
              34.432814973405826
            ]
          ]
        ]
      }
    },
    {
      "type": "Feature",
      "properties": {
        "id": "pond-2",
        "kind": "pond",
        "catchment_m2": 1087.0,
        "event_volume_m3": 9.78,
        "season_volume_m3": 97.8,
        "pond_capacity_m3": 241.3,
        "radius_m": 8.0,
        "depth_m_assumed": 1.2,
        "buildable_score": 0.577,
        "east_m": 363.8,
        "north_m": 271.8
      },
      "geometry": {
        "type": "Polygon",
        "coordinates": [
          [
            [
              -119.15543525649743,
              34.432887090837816
            ],
            [
              -119.15543567559861,
              34.432880022093364
            ],
            [
              -119.15543692886595,
              34.43287302142478
            ],
            [
              -119.15543900422983,
              34.432866156252345
            ],
            [
              -119.15544188170335,
              34.432859492691406
            ],
            [
              -119.15544553357488,
              34.43285309491571
            ],
            [
              -119.15544992467487,
              34.43284702453932
            ],
            [
              -119.15545501271464,
              34.432841340023295
            ],
            [
              -119.1554607486936,
              34.43283609611262
            ],
            [
              -119.15546707737111,
              34.43283134330902
            ],
            [
              -119.15547393779859,
              34.4328271273846
            ],
            [
              -119.15548126390632,
              34.43282348894102
            ],
            [
              -119.15548898513991,
              34.432820463018466
            ],
            [
              -119.15549702713966,
              34.43281807875824
            ],
            [
              -119.15550531245671,
              34.432816359122064
            ],
            [
              -119.15551376129892,
              34.432815320670976
            ],
            [
              -119.15552229229932,
              34.432814973405826
            ],
            [
              -119.15553082329973,
              34.432815320670976
            ],
            [
              -119.15553927214194,
              34.432816359122064
            ],
            [
              -119.15554755745899,
              34.43281807875824
            ],
            [
              -119.15555559945874,
              34.432820463018466
            ],
            [
              -119.15556332069232,
              34.43282348894102
            ],
            [
              -119.15557064680006,
              34.4328271273846
            ],
            [
              -119.15557750722753,
              34.43283134330902
            ],
            [
              -119.15558383590505,
              34.43283609611262
            ],
            [
              -119.15558957188401,
              34.432841340023295
            ],
            [
              -119.15559465992378,
              34.43284702453932
            ],
            [
              -119.15559905102377,
              34.43285309491571
            ],
            [
              -119.1556027028953,
              34.432859492691406
            ],
            [
              -119.15560558036881,
              34.432866156252345
            ],
            [
              -119.1556076557327,
              34.43287302142478
            ],
            [
              -119.15560890900004,
              34.432880022093364
            ],
            [
              -119.15560932810122,
              34.432887090837816
            ],
            [
              -119.15560890900004,
              34.43289415958227
            ],
            [
              -119.1556076557327,
              34.43290116025084
            ],
            [
              -119.15560558036881,
              34.43290802542329
            ],
            [
              -119.1556027028953,
              34.43291468898422
            ],
            [
              -119.15559905102377,
              34.432921086759926
            ],
            [
              -119.15559465992378,
              34.43292715713631
            ],
            [
              -119.15558957188401,
              34.43293284165234
            ],
            [
              -119.15558383590505,
              34.432938085563016
            ],
            [
              -119.15557750722753,
              34.432942838366614
            ],
            [
              -119.15557064680006,
              34.43294705429103
            ],
            [
              -119.15556332069232,
              34.432950692734615
            ],
            [
              -119.15555559945874,
              34.43295371865717
            ],
            [
              -119.15554755745899,
              34.432956102917395
            ],
            [
              -119.15553927214194,
              34.43295782255357
            ],
            [
              -119.15553082329973,
              34.43295886100466
            ],
            [
              -119.15552229229932,
              34.4329592082698
            ],
            [
              -119.15551376129892,
              34.43295886100466
            ],
            [
              -119.15550531245671,
              34.43295782255357
            ],
            [
              -119.15549702713966,
              34.432956102917395
            ],
            [
              -119.15548898513991,
              34.43295371865717
            ],
            [
              -119.15548126390632,
              34.432950692734615
            ],
            [
              -119.15547393779859,
              34.43294705429103
            ],
            [
              -119.15546707737111,
              34.432942838366614
            ],
            [
              -119.1554607486936,
              34.432938085563016
            ],
            [
              -119.15545501271464,
              34.43293284165234
            ],
            [
              -119.15544992467487,
              34.43292715713631
            ],
            [
              -119.15544553357488,
              34.432921086759926
            ],
            [
              -119.15544188170335,
              34.43291468898422
            ],
            [
              -119.15543900422983,
              34.43290802542329
            ],
            [
              -119.15543692886595,
              34.43290116025084
            ],
            [
              -119.15543567559861,
              34.43289415958227
            ],
            [
              -119.15543525649743,
              34.432887090837816
            ]
          ]
        ]
      }
    },
    {
      "type": "Feature",
      "properties": {
        "id": "pond-3",
        "kind": "pond",
        "catchment_m2": 575.0,
        "event_volume_m3": 5.17,
        "season_volume_m3": 51.8,
        "pond_capacity_m3": 241.3,
        "radius_m": 8.0,
        "depth_m_assumed": 1.2,
        "buildable_score": 0.745,
        "east_m": 322.8,
        "north_m": 257.8
      },
      "geometry": {
        "type": "Polygon",
        "coordinates": [
          [
            [
              -119.15588131498214,
              34.43276088533184
            ],
            [
              -119.15588173408331,
              34.432753816587386
            ],
            [
              -119.15588298735067,
              34.432746815918804
            ],
            [
              -119.15588506271455,
              34.43273995074637
            ],
            [
              -119.15588794018807,
              34.43273328718543
            ],
            [
              -119.15589159205958,
              34.43272688940973
            ],
            [
              -119.15589598315958,
              34.43272081903334
            ],
            [
              -119.15590107119935,
              34.432715134517316
            ],
            [
              -119.15590680717831,
              34.43270989060664
            ],
            [
              -119.15591313585583,
              34.43270513780304
            ],
            [
              -119.15591999628329,
              34.43270092187862
            ],
            [
              -119.15592732239104,
              34.43269728343504
            ],
            [
              -119.15593504362462,
              34.43269425751249
            ],
            [
              -119.15594308562437,
              34.43269187325226
            ],
            [
              -119.15595137094141,
              34.432690153616086
            ],
            [
              -119.15595981978362,
              34.432689115165
            ],
            [
              -119.15596835078404,
              34.43268876789985
            ],
            [
              -119.15597688178444,
              34.432689115165
            ],
            [
              -119.15598533062665,
              34.432690153616086
            ],
            [
              -119.1559936159437,
              34.43269187325226
            ],
            [
              -119.15600165794343,
              34.43269425751249
            ],
            [
              -119.15600937917704,
              34.43269728343504
            ],
            [
              -119.15601670528477,
              34.43270092187862
            ],
            [
              -119.15602356571223,
              34.43270513780304
            ],
            [
              -119.15602989438976,
              34.43270989060664
            ],
            [
              -119.15603563036872,
              34.432715134517316
            ],
            [
              -119.15604071840849,
              34.43272081903334
            ],
            [
              -119.15604510950848,
              34.43272688940973
            ],
            [
              -119.15604876137999,
              34.43273328718543
            ],
            [
              -119.15605163885351,
              34.43273995074637
            ],
            [
              -119.15605371421739,
              34.432746815918804
            ],
            [
              -119.15605496748475,
              34.432753816587386
            ],
            [
              -119.15605538658593,
              34.43276088533184
            ],
            [
              -119.15605496748475,
              34.43276795407629
            ],
            [
              -119.15605371421739,
              34.432774954744865
            ],
            [
              -119.15605163885351,
              34.43278181991731
            ],
            [
              -119.15604876137999,
              34.43278848347824
            ],
            [
              -119.15604510950848,
              34.43279488125395
            ],
            [
              -119.15604071840849,
              34.432800951630334
            ],
            [
              -119.15603563036872,
              34.43280663614636
            ],
            [
              -119.15602989438976,
              34.43281188005704
            ],
            [
              -119.15602356571223,
              34.432816632860636
            ],
            [
              -119.15601670528477,
              34.43282084878505
            ],
            [
              -119.15600937917704,
              34.432824487228636
            ],
            [
              -119.15600165794343,
              34.43282751315119
            ],
            [
              -119.1559936159437,
              34.432829897411416
            ],
            [
              -119.15598533062665,
              34.43283161704759
            ],
            [
              -119.15597688178444,
              34.43283265549868
            ],
            [
              -119.15596835078404,
              34.43283300276382
            ],
            [
              -119.15595981978362,
              34.43283265549868
            ],
            [
              -119.15595137094141,
              34.43283161704759
            ],
            [
              -119.15594308562437,
              34.432829897411416
            ],
            [
              -119.15593504362462,
              34.43282751315119
            ],
            [
              -119.15592732239104,
              34.432824487228636
            ],
            [
              -119.15591999628329,
              34.43282084878505
            ],
            [
              -119.15591313585583,
              34.432816632860636
            ],
            [
              -119.15590680717831,
              34.43281188005704
            ],
            [
              -119.15590107119935,
              34.43280663614636
            ],
            [
              -119.15589598315958,
              34.432800951630334
            ],
            [
              -119.15589159205958,
              34.43279488125395
            ],
            [
              -119.15588794018807,
              34.43278848347824
            ],
            [
              -119.15588506271455,
              34.43278181991731
            ],
            [
              -119.15588298735067,
              34.432774954744865
            ],
            [
              -119.15588173408331,
              34.43276795407629
            ],
            [
              -119.15588131498214,
              34.43276088533184
            ]
          ]
        ]
      }
    }
  ]
}
